{"type": "FeatureCollection", "features": [{"type": "Feature", "geometry": {"type": "Point", "coordinates": [-118.192, 33.784]}, "properties": {"count": 34}}, {"type": "Feature", "geometry": {"type": "Point", "coordinates": [-118.196, 33.784]}, "properties": {"count": 74}}, {"type": "Feature", "geometry": {"type": "Point", "coordinates": [-118.156, 33.876]}, "properties": {"count": 105}}, {"type": "Feature", "geometry": {"type": "Point", "coordinates": [-118.196, 33.772]}, "properties": {"count": 215}}, {"type": "Feature", "geometry": {"type": "Point", "coordinates": [-118.172, 33.788]}, "properties": {"count": 24}}, {"type": "Feature", "geometry": {"type": "Point", "coordinates": [-118.184, 33.768]}, "properties": {"count": 263}}, {"type": "Feature", "geometry": {"type": "Point", "coordinates": [-118.156, 33.768]}, "properties": {"count": 14}}, {"type": "Feature", "geometry": {"type": "Point", "coordinates": [-118.16, 33.78]}, "properties": {"count": 27}}, {"type": "Feature", "geometry": {"type": "Point", "coordinates": [-118.152, 33.784]}, "properties": {"count": 42}}, {"type": "Feature", "geometry": {"type": "Point", "coordinates": [-118.152, 33.788]}, "properties": {"count": 65}}, {"type": "Feature", "geometry": {"type": "Point", "coordinates": [-118.144, 33.78]}, "properties": {"count": 43}}, {"type": "Feature", "geometry": {"type": "Point", "coordinates": [-118.192, 33.78]}, "properties": {"count": 70}}, {"type": "Feature", "geometry": {"type": "Point", "coordinates": [-118.184, 33.78]}, "properties": {"count": 58}}, {"type": "Feature", "geometry": {"type": "Point", "coordinates": [-118.172, 33.768]}, "properties": {"count": 57}}, {"type": "Feature", "geometry": {"type": "Point", "coordinates": [-118.188, 33.768]}, "properties": {"count": 77}}, {"type": "Feature", "geometry": {"type": "Point", "coordinates": [-118.188, 33.776]}, "properties": {"count": 95}}, {"type": "Feature", "geometry": {"type": "Point", "coordinates": [-118.188, 33.848]}, "properties": {"count": 25}}, {"type": "Feature", "geometry": {"type": "Point", "coordinates": [-118.2, 33.78]}, "properties": {"count": 63}}, {"type": "Feature", "geometry": {"type": "Point", "coordinates": [-118.168, 33.78]}, "properties": {"count": 60}}, {"type": "Feature", "geometry": {"type": "Point", "coordinates": [-118.176, 33.772]}, "properties": {"count": 63}}, {"type": "Feature", "geometry": {"type": "Point", "coordinates": [-118.136, 33.756]}, "properties": {"count": 20}}, {"type": "Feature", "geometry": {"type": "Point", "coordinates": [-118.2, 33.772]}, "properties": {"count": 115}}, {"type": "Feature", "geometry": {"type": "Point", "coordinates": [-118.192, 33.776]}, "properties": {"count": 192}}, {"type": "Feature", "geometry": {"type": "Point", "coordinates": [-118.172, 33.78]}, "properties": {"count": 112}}, {"type": "Feature", "geometry": {"type": "Point", "coordinates": [-118.16, 33.856]}, "properties": {"count": 246}}, {"type": "Feature", "geometry": {"type": "Point", "coordinates": [-118.168, 33.788]}, "properties": {"count": 48}}, {"type": "Feature", "geometry": {"type": "Point", "coordinates": [-118.156, 33.776]}, "properties": {"count": 47}}, {"type": "Feature", "geometry": {"type": "Point", "coordinates": [-118.152, 33.78]}, "properties": {"count": 103}}, {"type": "Feature", "geometry": {"type": "Point", "coordinates": [-118.196, 33.776]}, "properties": {"count": 134}}, {"type": "Feature", "geometry": {"type": "Point", "coordinates": [-118.18, 33.764]}, "properties": {"count": 16}}, {"type": "Feature", "geometry": {"type": "Point", "coordinates": [-118.192, 33.792]}, "properties": {"count": 119}}, {"type": "Feature", "geometry": {"type": "Point", "coordinates": [-118.168, 33.764]}, "properties": {"count": 35}}, {"type": "Feature", "geometry": {"type": "Point", "coordinates": [-118.148, 33.792]}, "properties": {"count": 64}}, {"type": "Feature", "geometry": {"type": "Point", "coordinates": [-118.184, 33.788]}, "properties": {"count": 16}}, {"type": "Feature", "geometry": {"type": "Point", "coordinates": [-118.196, 33.844]}, "properties": {"count": 18}}, {"type": "Feature", "geometry": {"type": "Point", "coordinates": [-118.188, 33.772]}, "properties": {"count": 101}}, {"type": "Feature", "geometry": {"type": "Point", "coordinates": [-118.136, 33.792]}, "properties": {"count": 75}}, {"type": "Feature", "geometry": {"type": "Point", "coordinates": [-118.192, 33.852]}, "properties": {"count": 18}}, {"type": "Feature", "geometry": {"type": "Point", "coordinates": [-118.216, 33.8]}, "properties": {"count": 23}}, {"type": "Feature", "geometry": {"type": "Point", "coordinates": [-118.16, 33.772]}, "properties": {"count": 14}}, {"type": "Feature", "geometry": {"type": "Point", "coordinates": [-118.184, 33.848]}, "properties": {"count": 13}}, {"type": "Feature", "geometry": {"type": "Point", "coordinates": [-118.168, 33.876]}, "properties": {"count": 5}}, {"type": "Feature", "geometry": {"type": "Point", "coordinates": [-118.176, 33.86]}, "properties": {"count": 39}}, {"type": "Feature", "geometry": {"type": "Point", "coordinates": [-118.224, 33.792]}, "properties": {"count": 71}}, {"type": "Feature", "geometry": {"type": "Point", "coordinates": [-118.176, 33.788]}, "properties": {"count": 9}}, {"type": "Feature", "geometry": {"type": "Point", "coordinates": [-118.124, 33.776]}, "properties": {"count": 28}}, {"type": "Feature", "geometry": {"type": "Point", "coordinates": [-118.196, 33.852]}, "properties": {"count": 21}}, {"type": "Feature", "geometry": {"type": "Point", "coordinates": [-118.184, 33.776]}, "properties": {"count": 92}}, {"type": "Feature", "geometry": {"type": "Point", "coordinates": [-118.196, 33.788]}, "properties": {"count": 75}}, {"type": "Feature", "geometry": {"type": "Point", "coordinates": [-118.156, 33.784]}, "properties": {"count": 10}}, {"type": "Feature", "geometry": {"type": "Point", "coordinates": [-118.144, 33.776]}, "properties": {"count": 13}}, {"type": "Feature", "geometry": {"type": "Point", "coordinates": [-118.176, 33.768]}, "properties": {"count": 63}}, {"type": "Feature", "geometry": {"type": "Point", "coordinates": [-118.144, 33.792]}, "properties": {"count": 27}}, {"type": "Feature", "geometry": {"type": "Point", "coordinates": [-118.184, 33.8]}, "properties": {"count": 12}}, {"type": "Feature", "geometry": {"type": "Point", "coordinates": [-118.188, 33.844]}, "properties": {"count": 15}}, {"type": "Feature", "geometry": {"type": "Point", "coordinates": [-118.184, 33.772]}, "properties": {"count": 67}}, {"type": "Feature", "geometry": {"type": "Point", "coordinates": [-118.16, 33.86]}, "properties": {"count": 102}}, {"type": "Feature", "geometry": {"type": "Point", "coordinates": [-118.188, 33.864]}, "properties": {"count": 25}}, {"type": "Feature", "geometry": {"type": "Point", "coordinates": [-118.188, 33.784]}, "properties": {"count": 19}}, {"type": "Feature", "geometry": {"type": "Point", "coordinates": [-118.196, 33.78]}, "properties": {"count": 73}}, {"type": "Feature", "geometry": {"type": "Point", "coordinates": [-118.196, 33.792]}, "properties": {"count": 101}}, {"type": "Feature", "geometry": {"type": "Point", "coordinates": [-118.168, 33.776]}, "properties": {"count": 47}}, {"type": "Feature", "geometry": {"type": "Point", "coordinates": [-118.22, 33.792]}, "properties": {"count": 61}}, {"type": "Feature", "geometry": {"type": "Point", "coordinates": [-118.188, 33.82]}, "properties": {"count": 27}}, {"type": "Feature", "geometry": {"type": "Point", "coordinates": [-118.18, 33.772]}, "properties": {"count": 64}}, {"type": "Feature", "geometry": {"type": "Point", "coordinates": [-118.14, 33.784]}, "properties": {"count": 10}}, {"type": "Feature", "geometry": {"type": "Point", "coordinates": [-118.14, 33.772]}, "properties": {"count": 28}}, {"type": "Feature", "geometry": {"type": "Point", "coordinates": [-118.18, 33.784]}, "properties": {"count": 28}}, {"type": "Feature", "geometry": {"type": "Point", "coordinates": [-118.18, 33.796]}, "properties": {"count": 25}}, {"type": "Feature", "geometry": {"type": "Point", "coordinates": [-118.18, 33.768]}, "properties": {"count": 90}}, {"type": "Feature", "geometry": {"type": "Point", "coordinates": [-118.18, 33.776]}, "properties": {"count": 65}}, {"type": "Feature", "geometry": {"type": "Point", "coordinates": [-118.16, 33.776]}, "properties": {"count": 16}}, {"type": "Feature", "geometry": {"type": "Point", "coordinates": [-118.192, 33.796]}, "properties": {"count": 50}}, {"type": "Feature", "geometry": {"type": "Point", "coordinates": [-118.188, 33.856]}, "properties": {"count": 47}}, {"type": "Feature", "geometry": {"type": "Point", "coordinates": [-118.216, 33.82]}, "properties": {"count": 16}}, {"type": "Feature", "geometry": {"type": "Point", "coordinates": [-118.192, 33.86]}, "properties": {"count": 37}}, {"type": "Feature", "geometry": {"type": "Point", "coordinates": [-118.128, 33.84]}, "properties": {"count": 17}}, {"type": "Feature", "geometry": {"type": "Point", "coordinates": [-118.176, 33.776]}, "properties": {"count": 75}}, {"type": "Feature", "geometry": {"type": "Point", "coordinates": [-118.176, 33.78]}, "properties": {"count": 32}}, {"type": "Feature", "geometry": {"type": "Point", "coordinates": [-118.188, 33.836]}, "properties": {"count": 10}}, {"type": "Feature", "geometry": {"type": "Point", "coordinates": [-118.184, 33.836]}, "properties": {"count": 54}}, {"type": "Feature", "geometry": {"type": "Point", "coordinates": [-118.192, 33.772]}, "properties": {"count": 146}}, {"type": "Feature", "geometry": {"type": "Point", "coordinates": [-118.164, 33.856]}, "properties": {"count": 102}}, {"type": "Feature", "geometry": {"type": "Point", "coordinates": [-118.192, 33.788]}, "properties": {"count": 54}}, {"type": "Feature", "geometry": {"type": "Point", "coordinates": [-118.176, 33.844]}, "properties": {"count": 19}}, {"type": "Feature", "geometry": {"type": "Point", "coordinates": [-118.18, 33.788]}, "properties": {"count": 27}}, {"type": "Feature", "geometry": {"type": "Point", "coordinates": [-118.16, 33.768]}, "properties": {"count": 28}}, {"type": "Feature", "geometry": {"type": "Point", "coordinates": [-118.164, 33.844]}, "properties": {"count": 54}}, {"type": "Feature", "geometry": {"type": "Point", "coordinates": [-118.216, 33.816]}, "properties": {"count": 4}}, {"type": "Feature", "geometry": {"type": "Point", "coordinates": [-118.22, 33.824]}, "properties": {"count": 7}}, {"type": "Feature", "geometry": {"type": "Point", "coordinates": [-118.188, 33.788]}, "properties": {"count": 41}}, {"type": "Feature", "geometry": {"type": "Point", "coordinates": [-118.208, 33.792]}, "properties": {"count": 13}}, {"type": "Feature", "geometry": {"type": "Point", "coordinates": [-118.164, 33.788]}, "properties": {"count": 58}}, {"type": "Feature", "geometry": {"type": "Point", "coordinates": [-118.188, 33.872]}, "properties": {"count": 109}}, {"type": "Feature", "geometry": {"type": "Point", "coordinates": [-118.148, 33.776]}, "properties": {"count": 8}}, {"type": "Feature", "geometry": {"type": "Point", "coordinates": [-118.144, 33.788]}, "properties": {"count": 14}}, {"type": "Feature", "geometry": {"type": "Point", "coordinates": [-118.172, 33.784]}, "properties": {"count": 34}}, {"type": "Feature", "geometry": {"type": "Point", "coordinates": [-118.164, 33.86]}, "properties": {"count": 45}}, {"type": "Feature", "geometry": {"type": "Point", "coordinates": [-118.22, 33.812]}, "properties": {"count": 13}}, {"type": "Feature", "geometry": {"type": "Point", "coordinates": [-118.12, 33.772]}, "properties": {"count": 18}}, {"type": "Feature", "geometry": {"type": "Point", "coordinates": [-118.152, 33.764]}, "properties": {"count": 8}}, {"type": "Feature", "geometry": {"type": "Point", "coordinates": [-118.188, 33.792]}, "properties": {"count": 45}}, {"type": "Feature", "geometry": {"type": "Point", "coordinates": [-118.188, 33.804]}, "properties": {"count": 16}}, {"type": "Feature", "geometry": {"type": "Point", "coordinates": [-118.164, 33.848]}, "properties": {"count": 7}}, {"type": "Feature", "geometry": {"type": "Point", "coordinates": [-118.196, 33.768]}, "properties": {"count": 258}}, {"type": "Feature", "geometry": {"type": "Point", "coordinates": [-118.152, 33.876]}, "properties": {"count": 26}}, {"type": "Feature", "geometry": {"type": "Point", "coordinates": [-118.2, 33.788]}, "properties": {"count": 17}}, {"type": "Feature", "geometry": {"type": "Point", "coordinates": [-118.188, 33.78]}, "properties": {"count": 83}}, {"type": "Feature", "geometry": {"type": "Point", "coordinates": [-118.172, 33.88]}, "properties": {"count": 8}}, {"type": "Feature", "geometry": {"type": "Point", "coordinates": [-118.176, 33.784]}, "properties": {"count": 16}}, {"type": "Feature", "geometry": {"type": "Point", "coordinates": [-118.168, 33.856]}, "properties": {"count": 46}}, {"type": "Feature", "geometry": {"type": "Point", "coordinates": [-118.176, 33.84]}, "properties": {"count": 45}}, {"type": "Feature", "geometry": {"type": "Point", "coordinates": [-118.188, 33.8]}, "properties": {"count": 53}}, {"type": "Feature", "geometry": {"type": "Point", "coordinates": [-118.164, 33.776]}, "properties": {"count": 11}}, {"type": "Feature", "geometry": {"type": "Point", "coordinates": [-118.184, 33.852]}, "properties": {"count": 15}}, {"type": "Feature", "geometry": {"type": "Point", "coordinates": [-118.188, 33.86]}, "properties": {"count": 20}}, {"type": "Feature", "geometry": {"type": "Point", "coordinates": [-118.168, 33.768]}, "properties": {"count": 41}}, {"type": "Feature", "geometry": {"type": "Point", "coordinates": [-118.112, 33.768]}, "properties": {"count": 11}}, {"type": "Feature", "geometry": {"type": "Point", "coordinates": [-118.204, 33.88]}, "properties": {"count": 33}}, {"type": "Feature", "geometry": {"type": "Point", "coordinates": [-118.196, 33.856]}, "properties": {"count": 26}}, {"type": "Feature", "geometry": {"type": "Point", "coordinates": [-118.144, 33.84]}, "properties": {"count": 6}}, {"type": "Feature", "geometry": {"type": "Point", "coordinates": [-118.172, 33.764]}, "properties": {"count": 39}}, {"type": "Feature", "geometry": {"type": "Point", "coordinates": [-118.156, 33.78]}, "properties": {"count": 64}}, {"type": "Feature", "geometry": {"type": "Point", "coordinates": [-118.156, 33.772]}, "properties": {"count": 8}}, {"type": "Feature", "geometry": {"type": "Point", "coordinates": [-118.148, 33.784]}, "properties": {"count": 10}}, {"type": "Feature", "geometry": {"type": "Point", "coordinates": [-118.156, 33.764]}, "properties": {"count": 8}}, {"type": "Feature", "geometry": {"type": "Point", "coordinates": [-118.18, 33.792]}, "properties": {"count": 7}}, {"type": "Feature", "geometry": {"type": "Point", "coordinates": [-118.164, 33.784]}, "properties": {"count": 39}}, {"type": "Feature", "geometry": {"type": "Point", "coordinates": [-118.152, 33.86]}, "properties": {"count": 15}}, {"type": "Feature", "geometry": {"type": "Point", "coordinates": [-118.2, 33.776]}, "properties": {"count": 22}}, {"type": "Feature", "geometry": {"type": "Point", "coordinates": [-118.164, 33.78]}, "properties": {"count": 88}}, {"type": "Feature", "geometry": {"type": "Point", "coordinates": [-118.168, 33.784]}, "properties": {"count": 18}}, {"type": "Feature", "geometry": {"type": "Point", "coordinates": [-118.156, 33.788]}, "properties": {"count": 46}}, {"type": "Feature", "geometry": {"type": "Point", "coordinates": [-118.172, 33.776]}, "properties": {"count": 25}}, {"type": "Feature", "geometry": {"type": "Point", "coordinates": [-118.184, 33.784]}, "properties": {"count": 16}}, {"type": "Feature", "geometry": {"type": "Point", "coordinates": [-118.192, 33.812]}, "properties": {"count": 12}}, {"type": "Feature", "geometry": {"type": "Point", "coordinates": [-118.148, 33.788]}, "properties": {"count": 25}}, {"type": "Feature", "geometry": {"type": "Point", "coordinates": [-118.18, 33.78]}, "properties": {"count": 144}}, {"type": "Feature", "geometry": {"type": "Point", "coordinates": [-118.14, 33.788]}, "properties": {"count": 69}}, {"type": "Feature", "geometry": {"type": "Point", "coordinates": [-118.184, 33.86]}, "properties": {"count": 3}}, {"type": "Feature", "geometry": {"type": "Point", "coordinates": [-118.152, 33.772]}, "properties": {"count": 17}}, {"type": "Feature", "geometry": {"type": "Point", "coordinates": [-118.196, 33.8]}, "properties": {"count": 30}}, {"type": "Feature", "geometry": {"type": "Point", "coordinates": [-118.168, 33.864]}, "properties": {"count": 10}}, {"type": "Feature", "geometry": {"type": "Point", "coordinates": [-118.184, 33.864]}, "properties": {"count": 6}}, {"type": "Feature", "geometry": {"type": "Point", "coordinates": [-118.164, 33.772]}, "properties": {"count": 31}}, {"type": "Feature", "geometry": {"type": "Point", "coordinates": [-118.188, 33.816]}, "properties": {"count": 8}}, {"type": "Feature", "geometry": {"type": "Point", "coordinates": [-118.172, 33.772]}, "properties": {"count": 52}}, {"type": "Feature", "geometry": {"type": "Point", "coordinates": [-118.184, 33.856]}, "properties": {"count": 22}}, {"type": "Feature", "geometry": {"type": "Point", "coordinates": [-118.128, 33.756]}, "properties": {"count": 4}}, {"type": "Feature", "geometry": {"type": "Point", "coordinates": [-118.196, 33.796]}, "properties": {"count": 27}}, {"type": "Feature", "geometry": {"type": "Point", "coordinates": [-118.16, 33.784]}, "properties": {"count": 31}}, {"type": "Feature", "geometry": {"type": "Point", "coordinates": [-118.2, 33.784]}, "properties": {"count": 17}}, {"type": "Feature", "geometry": {"type": "Point", "coordinates": [-118.172, 33.86]}, "properties": {"count": 8}}, {"type": "Feature", "geometry": {"type": "Point", "coordinates": [-118.18, 33.86]}, "properties": {"count": 11}}, {"type": "Feature", "geometry": {"type": "Point", "coordinates": [-118.136, 33.784]}, "properties": {"count": 58}}, {"type": "Feature", "geometry": {"type": "Point", "coordinates": [-118.192, 33.8]}, "properties": {"count": 46}}, {"type": "Feature", "geometry": {"type": "Point", "coordinates": [-118.216, 33.788]}, "properties": {"count": 3}}, {"type": "Feature", "geometry": {"type": "Point", "coordinates": [-118.148, 33.772]}, "properties": {"count": 4}}, {"type": "Feature", "geometry": {"type": "Point", "coordinates": [-118.188, 33.796]}, "properties": {"count": 14}}, {"type": "Feature", "geometry": {"type": "Point", "coordinates": [-118.192, 33.856]}, "properties": {"count": 36}}, {"type": "Feature", "geometry": {"type": "Point", "coordinates": [-118.148, 33.764]}, "properties": {"count": 22}}, {"type": "Feature", "geometry": {"type": "Point", "coordinates": [-118.136, 33.788]}, "properties": {"count": 15}}, {"type": "Feature", "geometry": {"type": "Point", "coordinates": [-118.2, 33.844]}, "properties": {"count": 10}}, {"type": "Feature", "geometry": {"type": "Point", "coordinates": [-118.176, 33.832]}, "properties": {"count": 7}}, {"type": "Feature", "geometry": {"type": "Point", "coordinates": [-118.196, 33.764]}, "properties": {"count": 26}}, {"type": "Feature", "geometry": {"type": "Point", "coordinates": [-118.176, 33.764]}, "properties": {"count": 35}}, {"type": "Feature", "geometry": {"type": "Point", "coordinates": [-118.204, 33.876]}, "properties": {"count": 19}}, {"type": "Feature", "geometry": {"type": "Point", "coordinates": [-118.2, 33.876]}, "properties": {"count": 14}}, {"type": "Feature", "geometry": {"type": "Point", "coordinates": [-118.188, 33.868]}, "properties": {"count": 55}}, {"type": "Feature", "geometry": {"type": "Point", "coordinates": [-118.2, 33.796]}, "properties": {"count": 12}}, {"type": "Feature", "geometry": {"type": "Point", "coordinates": [-118.152, 33.776]}, "properties": {"count": 17}}, {"type": "Feature", "geometry": {"type": "Point", "coordinates": [-118.184, 33.844]}, "properties": {"count": 7}}, {"type": "Feature", "geometry": {"type": "Point", "coordinates": [-118.18, 33.832]}, "properties": {"count": 6}}, {"type": "Feature", "geometry": {"type": "Point", "coordinates": [-118.188, 33.824]}, "properties": {"count": 4}}, {"type": "Feature", "geometry": {"type": "Point", "coordinates": [-118.172, 33.868]}, "properties": {"count": 4}}, {"type": "Feature", "geometry": {"type": "Point", "coordinates": [-118.168, 33.772]}, "properties": {"count": 28}}, {"type": "Feature", "geometry": {"type": "Point", "coordinates": [-118.148, 33.78]}, "properties": {"count": 28}}, {"type": "Feature", "geometry": {"type": "Point", "coordinates": [-118.132, 33.764]}, "properties": {"count": 4}}, {"type": "Feature", "geometry": {"type": "Point", "coordinates": [-118.168, 33.872]}, "properties": {"count": 21}}, {"type": "Feature", "geometry": {"type": "Point", "coordinates": [-118.204, 33.792]}, "properties": {"count": 5}}, {"type": "Feature", "geometry": {"type": "Point", "coordinates": [-118.152, 33.768]}, "properties": {"count": 11}}, {"type": "Feature", "geometry": {"type": "Point", "coordinates": [-118.14, 33.776]}, "properties": {"count": 10}}, {"type": "Feature", "geometry": {"type": "Point", "coordinates": [-118.148, 33.76]}, "properties": {"count": 10}}, {"type": "Feature", "geometry": {"type": "Point", "coordinates": [-118.192, 33.828]}, "properties": {"count": 5}}, {"type": "Feature", "geometry": {"type": "Point", "coordinates": [-118.144, 33.764]}, "properties": {"count": 4}}, {"type": "Feature", "geometry": {"type": "Point", "coordinates": [-118.2, 33.816]}, "properties": {"count": 5}}, {"type": "Feature", "geometry": {"type": "Point", "coordinates": [-118.124, 33.84]}, "properties": {"count": 4}}, {"type": "Feature", "geometry": {"type": "Point", "coordinates": [-118.108, 33.78]}, "properties": {"count": 4}}, {"type": "Feature", "geometry": {"type": "Point", "coordinates": [-118.18, 33.876]}, "properties": {"count": 7}}, {"type": "Feature", "geometry": {"type": "Point", "coordinates": [-118.176, 33.856]}, "properties": {"count": 9}}, {"type": "Feature", "geometry": {"type": "Point", "coordinates": [-118.212, 33.84]}, "properties": {"count": 3}}, {"type": "Feature", "geometry": {"type": "Point", "coordinates": [-118.196, 33.86]}, "properties": {"count": 5}}, {"type": "Feature", "geometry": {"type": "Point", "coordinates": [-118.212, 33.792]}, "properties": {"count": 38}}, {"type": "Feature", "geometry": {"type": "Point", "coordinates": [-118.108, 33.752]}, "properties": {"count": 6}}, {"type": "Feature", "geometry": {"type": "Point", "coordinates": [-118.22, 33.796]}, "properties": {"count": 17}}, {"type": "Feature", "geometry": {"type": "Point", "coordinates": [-118.2, 33.792]}, "properties": {"count": 44}}, {"type": "Feature", "geometry": {"type": "Point", "coordinates": [-118.196, 33.804]}, "properties": {"count": 4}}, {"type": "Feature", "geometry": {"type": "Point", "coordinates": [-118.2, 33.804]}, "properties": {"count": 5}}, {"type": "Feature", "geometry": {"type": "Point", "coordinates": [-118.184, 33.84]}, "properties": {"count": 3}}, {"type": "Feature", "geometry": {"type": "Point", "coordinates": [-118.184, 33.792]}, "properties": {"count": 16}}, {"type": "Feature", "geometry": {"type": "Point", "coordinates": [-118.18, 33.852]}, "properties": {"count": 7}}, {"type": "Feature", "geometry": {"type": "Point", "coordinates": [-118.144, 33.76]}, "properties": {"count": 29}}, {"type": "Feature", "geometry": {"type": "Point", "coordinates": [-118.22, 33.816]}, "properties": {"count": 5}}, {"type": "Feature", "geometry": {"type": "Point", "coordinates": [-118.184, 33.824]}, "properties": {"count": 4}}, {"type": "Feature", "geometry": {"type": "Point", "coordinates": [-118.184, 33.832]}, "properties": {"count": 5}}, {"type": "Feature", "geometry": {"type": "Point", "coordinates": [-118.164, 33.768]}, "properties": {"count": 11}}, {"type": "Feature", "geometry": {"type": "Point", "coordinates": [-118.124, 33.8]}, "properties": {"count": 6}}, {"type": "Feature", "geometry": {"type": "Point", "coordinates": [-118.192, 33.804]}, "properties": {"count": 3}}, {"type": "Feature", "geometry": {"type": "Point", "coordinates": [-118.132, 33.76]}, "properties": {"count": 6}}, {"type": "Feature", "geometry": {"type": "Point", "coordinates": [-118.176, 33.868]}, "properties": {"count": 9}}, {"type": "Feature", "geometry": {"type": "Point", "coordinates": [-118.196, 33.848]}, "properties": {"count": 10}}, {"type": "Feature", "geometry": {"type": "Point", "coordinates": [-118.152, 33.796]}, "properties": {"count": 6}}, {"type": "Feature", "geometry": {"type": "Point", "coordinates": [-118.188, 33.88]}, "properties": {"count": 5}}, {"type": "Feature", "geometry": {"type": "Point", "coordinates": [-118.188, 33.832]}, "properties": {"count": 7}}, {"type": "Feature", "geometry": {"type": "Point", "coordinates": [-118.18, 33.856]}, "properties": {"count": 12}}, {"type": "Feature", "geometry": {"type": "Point", "coordinates": [-118.192, 33.844]}, "properties": {"count": 5}}, {"type": "Feature", "geometry": {"type": "Point", "coordinates": [-118.144, 33.836]}, "properties": {"count": 5}}, {"type": "Feature", "geometry": {"type": "Point", "coordinates": [-118.168, 33.868]}, "properties": {"count": 13}}, {"type": "Feature", "geometry": {"type": "Point", "coordinates": [-118.192, 33.848]}, "properties": {"count": 8}}, {"type": "Feature", "geometry": {"type": "Point", "coordinates": [-118.16, 33.872]}, "properties": {"count": 20}}, {"type": "Feature", "geometry": {"type": "Point", "coordinates": [-118.164, 33.764]}, "properties": {"count": 6}}, {"type": "Feature", "geometry": {"type": "Point", "coordinates": [-118.144, 33.784]}, "properties": {"count": 8}}, {"type": "Feature", "geometry": {"type": "Point", "coordinates": [-118.204, 33.872]}, "properties": {"count": 4}}, {"type": "Feature", "geometry": {"type": "Point", "coordinates": [-118.16, 33.88]}, "properties": {"count": 14}}, {"type": "Feature", "geometry": {"type": "Point", "coordinates": [-118.16, 33.788]}, "properties": {"count": 10}}, {"type": "Feature", "geometry": {"type": "Point", "coordinates": [-118.192, 33.768]}, "properties": {"count": 99}}, {"type": "Feature", "geometry": {"type": "Point", "coordinates": [-118.14, 33.78]}, "properties": {"count": 9}}, {"type": "Feature", "geometry": {"type": "Point", "coordinates": [-118.116, 33.772]}, "properties": {"count": 8}}, {"type": "Feature", "geometry": {"type": "Point", "coordinates": [-118.14, 33.756]}, "properties": {"count": 7}}, {"type": "Feature", "geometry": {"type": "Point", "coordinates": [-118.22, 33.8]}, "properties": {"count": 3}}, {"type": "Feature", "geometry": {"type": "Point", "coordinates": [-118.148, 33.796]}, "properties": {"count": 15}}, {"type": "Feature", "geometry": {"type": "Point", "coordinates": [-118.176, 33.876]}, "properties": {"count": 7}}, {"type": "Feature", "geometry": {"type": "Point", "coordinates": [-118.16, 33.876]}, "properties": {"count": 17}}, {"type": "Feature", "geometry": {"type": "Point", "coordinates": [-118.212, 33.816]}, "properties": {"count": 4}}, {"type": "Feature", "geometry": {"type": "Point", "coordinates": [-118.176, 33.884]}, "properties": {"count": 4}}, {"type": "Feature", "geometry": {"type": "Point", "coordinates": [-118.136, 33.796]}, "properties": {"count": 3}}, {"type": "Feature", "geometry": {"type": "Point", "coordinates": [-118.132, 33.756]}, "properties": {"count": 6}}, {"type": "Feature", "geometry": {"type": "Point", "coordinates": [-118.172, 33.876]}, "properties": {"count": 7}}, {"type": "Feature", "geometry": {"type": "Point", "coordinates": [-118.16, 33.868]}, "properties": {"count": 3}}, {"type": "Feature", "geometry": {"type": "Point", "coordinates": [-118.176, 33.852]}, "properties": {"count": 17}}, {"type": "Feature", "geometry": {"type": "Point", "coordinates": [-118.124, 33.792]}, "properties": {"count": 5}}, {"type": "Feature", "geometry": {"type": "Point", "coordinates": [-118.176, 33.864]}, "properties": {"count": 6}}, {"type": "Feature", "geometry": {"type": "Point", "coordinates": [-118.22, 33.788]}, "properties": {"count": 4}}, {"type": "Feature", "geometry": {"type": "Point", "coordinates": [-118.128, 33.78]}, "properties": {"count": 3}}, {"type": "Feature", "geometry": {"type": "Point", "coordinates": [-118.18, 33.8]}, "properties": {"count": 7}}, {"type": "Feature", "geometry": {"type": "Point", "coordinates": [-118.188, 33.852]}, "properties": {"count": 6}}, {"type": "Feature", "geometry": {"type": "Point", "coordinates": [-118.144, 33.804]}, "properties": {"count": 48}}, {"type": "Feature", "geometry": {"type": "Point", "coordinates": [-118.184, 33.796]}, "properties": {"count": 4}}, {"type": "Feature", "geometry": {"type": "Point", "coordinates": [-118.148, 33.8]}, "properties": {"count": 4}}, {"type": "Feature", "geometry": {"type": "Point", "coordinates": [-118.128, 33.788]}, "properties": {"count": 3}}, {"type": "Feature", "geometry": {"type": "Point", "coordinates": [-118.188, 33.84]}, "properties": {"count": 3}}, {"type": "Feature", "geometry": {"type": "Point", "coordinates": [-118.136, 33.764]}, "properties": {"count": 3}}, {"type": "Feature", "geometry": {"type": "Point", "coordinates": [-118.14, 33.768]}, "properties": {"count": 3}}, {"type": "Feature", "geometry": {"type": "Point", "coordinates": [-118.144, 33.772]}, "properties": {"count": 7}}, {"type": "Feature", "geometry": {"type": "Point", "coordinates": [-118.172, 33.848]}, "properties": {"count": 3}}, {"type": "Feature", "geometry": {"type": "Point", "coordinates": [-118.152, 33.76]}, "properties": {"count": 3}}, {"type": "Feature", "geometry": {"type": "Point", "coordinates": [-118.22, 33.808]}, "properties": {"count": 4}}, {"type": "Feature", "geometry": {"type": "Point", "coordinates": [-118.156, 33.872]}, "properties": {"count": 4}}, {"type": "Feature", "geometry": {"type": "Point", "coordinates": [-118.156, 33.86]}, "properties": {"count": 5}}, {"type": "Feature", "geometry": {"type": "Point", "coordinates": [-118.14, 33.76]}, "properties": {"count": 4}}, {"type": "Feature", "geometry": {"type": "Point", "coordinates": [-118.196, 33.816]}, "properties": {"count": 6}}, {"type": "Feature", "geometry": {"type": "Point", "coordinates": [-118.216, 33.796]}, "properties": {"count": 4}}, {"type": "Feature", "geometry": {"type": "Point", "coordinates": [-118.12, 33.796]}, "properties": {"count": 4}}, {"type": "Feature", "geometry": {"type": "Point", "coordinates": [-118.192, 33.808]}, "properties": {"count": 4}}, {"type": "Feature", "geometry": {"type": "Point", "coordinates": [-118.184, 33.876]}, "properties": {"count": 3}}, {"type": "Feature", "geometry": {"type": "Point", "coordinates": [-118.18, 33.868]}, "properties": {"count": 4}}, {"type": "Feature", "geometry": {"type": "Point", "coordinates": [-118.188, 33.828]}, "properties": {"count": 4}}, {"type": "Feature", "geometry": {"type": "Point", "coordinates": [-118.168, 33.852]}, "properties": {"count": 5}}, {"type": "Feature", "geometry": {"type": "Point", "coordinates": [-118.184, 33.804]}, "properties": {"count": 3}}, {"type": "Feature", "geometry": {"type": "Point", "coordinates": [-118.188, 33.876]}, "properties": {"count": 3}}, {"type": "Feature", "geometry": {"type": "Point", "coordinates": [-118.1, 33.828]}, "properties": {"count": 5}}, {"type": "Feature", "geometry": {"type": "Point", "coordinates": [-118.108, 33.768]}, "properties": {"count": 3}}, {"type": "Feature", "geometry": {"type": "Point", "coordinates": [-118.192, 33.824]}, "properties": {"count": 5}}, {"type": "Feature", "geometry": {"type": "Point", "coordinates": [-118.2, 33.768]}, "properties": {"count": 6}}, {"type": "Feature", "geometry": {"type": "Point", "coordinates": [-118.132, 33.828]}, "properties": {"count": 3}}, {"type": "Feature", "geometry": {"type": "Point", "coordinates": [-118.192, 33.764]}, "properties": {"count": 10}}, {"type": "Feature", "geometry": {"type": "Point", "coordinates": [-118.168, 33.82]}, "properties": {"count": 4}}, {"type": "Feature", "geometry": {"type": "Point", "coordinates": [-118.124, 33.836]}, "properties": {"count": 4}}, {"type": "Feature", "geometry": {"type": "Point", "coordinates": [-118.148, 33.868]}, "properties": {"count": 4}}, {"type": "Feature", "geometry": {"type": "Point", "coordinates": [-118.216, 33.784]}, "properties": {"count": 5}}]}