{"type": "FeatureCollection", "features": [{"type": "Feature", "geometry": {"type": "MultiPolygon", "coordinates": [[[[-118.12901, 33.83039], [-118.1289, 33.8411], [-118.14624, 33.84105], [-118.14219, 33.84622], [-118.14778, 33.84726], [-118.15343, 33.8384], [-118.14276, 33.83807], [-118.14253, 33.83082], [-118.12901, 33.83039]]]]}, "properties": {"grade": "A", "category": "Best", "label": "A56", "fill": "#5aa469"}}, {"type": "Feature", "geometry": {"type": "MultiPolygon", "coordinates": [[[[-118.18066, 33.82838], [-118.18066, 33.83384], [-118.18072, 33.83683], [-118.18116, 33.83789], [-118.18176, 33.83855], [-118.18497, 33.83678], [-118.18404, 33.83537], [-118.18621, 33.83411], [-118.18621, 33.83147], [-118.18776, 33.83145], [-118.18785, 33.8283], [-118.18066, 33.82838]]]]}, "properties": {"grade": "A", "category": "Best", "label": "A58", "fill": "#5aa469"}}, {"type": "Feature", "geometry": {"type": "MultiPolygon", "coordinates": [[[[-118.17714, 33.85436], [-118.17732, 33.86708], [-118.18097, 33.86705], [-118.18103, 33.85824], [-118.18386, 33.85812], [-118.18381, 33.85429], [-118.18479, 33.85415], [-118.18473, 33.85243], [-118.18349, 33.85251], [-118.18285, 33.85253], [-118.18286, 33.85426], [-118.17714, 33.85436]]]]}, "properties": {"grade": "B", "category": "Still Desirable", "label": "B113", "fill": "#4d8ae8"}}, {"type": "Feature", "geometry": {"type": "MultiPolygon", "coordinates": [[[[-118.18776, 33.83145], [-118.18907, 33.83149], [-118.19037, 33.83357], [-118.1923, 33.83263], [-118.19397, 33.8347], [-118.19575, 33.83453], [-118.19631, 33.83436], [-118.19747, 33.83357], [-118.19828, 33.83253], [-118.19869, 33.83159], [-118.19875, 33.8307], [-118.19893, 33.8294], [-118.19849, 33.82635], [-118.18933, 33.82668], [-118.18915, 33.82829], [-118.18785, 33.8283], [-118.18776, 33.83145]]]]}, "properties": {"grade": "B", "category": "Still Desirable", "label": "B114", "fill": "#4d8ae8"}}, {"type": "Feature", "geometry": {"type": "MultiPolygon", "coordinates": [[[[-118.16761, 33.81992], [-118.16747, 33.82661], [-118.18078, 33.82673], [-118.18063, 33.82737], [-118.18066, 33.82838], [-118.18785, 33.8283], [-118.18915, 33.82829], [-118.18933, 33.82668], [-118.1879, 33.82673], [-118.1879, 33.82418], [-118.17075, 33.82409], [-118.17079, 33.82019], [-118.16761, 33.81992]]]]}, "properties": {"grade": "B", "category": "Still Desirable", "label": "B115", "fill": "#4d8ae8"}}, {"type": "Feature", "geometry": {"type": "MultiPolygon", "coordinates": [[[[-118.12111, 33.77363], [-118.12099, 33.77422], [-118.12871, 33.77985], [-118.12865, 33.77373], [-118.12111, 33.77363]]]]}, "properties": {"grade": "B", "category": "Still Desirable", "label": "B116", "fill": "#4d8ae8"}}, {"type": "Feature", "geometry": {"type": "MultiPolygon", "coordinates": [[[[-118.12243, 33.75968], [-118.13093, 33.76722], [-118.13759, 33.77188], [-118.14867, 33.77172], [-118.15996, 33.77165], [-118.16002, 33.77142], [-118.16433, 33.7714], [-118.16563, 33.76693], [-118.17866, 33.76877], [-118.18203, 33.76925], [-118.18325, 33.76532], [-118.17826, 33.76483], [-118.1733, 33.76421], [-118.16623, 33.76325], [-118.15791, 33.76147], [-118.14876, 33.7592], [-118.14875, 33.76096], [-118.14781, 33.76101], [-118.1477, 33.76034], [-118.13971, 33.76219], [-118.12984, 33.75845], [-118.12864, 33.75997], [-118.1275, 33.76063], [-118.12488, 33.76044], [-118.12243, 33.75968]], [[-118.16833, 33.76455], [-118.16799, 33.76655], [-118.16596, 33.76623], [-118.16666, 33.76416], [-118.16833, 33.76455]], [[-118.15343, 33.76626], [-118.1512, 33.76626], [-118.15137, 33.76553], [-118.15139, 33.76357], [-118.1505, 33.76281], [-118.15173, 33.76161], [-118.15373, 33.7637], [-118.15575, 33.76402], [-118.15558, 33.76553], [-118.15353, 33.76506], [-118.15343, 33.76626]]]]}, "properties": {"grade": "B", "category": "Still Desirable", "label": "B117", "fill": "#4d8ae8"}}, {"type": "Feature", "geometry": {"type": "MultiPolygon", "coordinates": [[[[-118.12243, 33.75968], [-118.12488, 33.76044], [-118.1275, 33.76063], [-118.12864, 33.75997], [-118.12984, 33.75845], [-118.13971, 33.76219], [-118.1477, 33.76034], [-118.14781, 33.76101], [-118.14875, 33.76096], [-118.14876, 33.7592], [-118.1445, 33.75783], [-118.13406, 33.75333], [-118.12688, 33.74953], [-118.12288, 33.74706], [-118.12032, 33.74526], [-118.11821, 33.74465], [-118.11575, 33.74422], [-118.11501, 33.74465], [-118.11501, 33.74526], [-118.11495, 33.74578], [-118.11484, 33.74621], [-118.12026, 33.75105], [-118.11764, 33.7529], [-118.11592, 33.75214], [-118.11461, 33.7519], [-118.11444, 33.75238], [-118.11473, 33.75304], [-118.12243, 33.75968]]]]}, "properties": {"grade": "B", "category": "Still Desirable", "label": "B118", "fill": "#4d8ae8"}}, {"type": "Feature", "geometry": {"type": "MultiPolygon", "coordinates": [[[[-118.20644, 33.89255], [-118.20857, 33.89256], [-118.20886, 33.8958], [-118.21157, 33.89585], [-118.21154, 33.89406], [-118.21252, 33.89396], [-118.21247, 33.89311], [-118.21882, 33.89317], [-118.2182, 33.88881], [-118.20624, 33.88883], [-118.20644, 33.89255]]], [[[-118.20882, 33.89992], [-118.20902, 33.90335], [-118.21211, 33.90335], [-118.21247, 33.907], [-118.22094, 33.90685], [-118.21917, 33.89694], [-118.20868, 33.89707], [-118.20882, 33.89992]]]]}, "properties": {"grade": "B", "category": "Still Desirable", "label": "B119", "fill": "#4d8ae8"}}, {"type": "Feature", "geometry": {"type": "MultiPolygon", "coordinates": [[[[-118.20658, 33.88128], [-118.2071, 33.8849], [-118.19681, 33.88508], [-118.19669, 33.88895], [-118.19288, 33.88905], [-118.19317, 33.89534], [-118.19336, 33.89593], [-118.20662, 33.89582], [-118.20644, 33.89255], [-118.20624, 33.88883], [-118.2062, 33.88802], [-118.20852, 33.88788], [-118.20879, 33.88735], [-118.21085, 33.88717], [-118.21054, 33.88135], [-118.20899, 33.88129], [-118.20658, 33.88128]]]]}, "properties": {"grade": "B", "category": "Still Desirable", "label": "B120", "fill": "#4d8ae8"}}, {"type": "Feature", "geometry": {"type": "MultiPolygon", "coordinates": [[[[-118.15141, 33.8819], [-118.14277, 33.88219], [-118.14284, 33.86911], [-118.11717, 33.86911], [-118.11739, 33.8819], [-118.11967, 33.8835], [-118.12017, 33.89693], [-118.132, 33.89681], [-118.12887, 33.90196], [-118.13799, 33.90581], [-118.14434, 33.89646], [-118.16894, 33.8964], [-118.16894, 33.88208], [-118.15993, 33.88197], [-118.15141, 33.8819]]]]}, "properties": {"grade": "C", "category": "Definitely Declining", "label": "C138", "fill": "#e0b020"}}, {"type": "Feature", "geometry": {"type": "MultiPolygon", "coordinates": [[[[-118.20658, 33.88128], [-118.20899, 33.88129], [-118.20905, 33.87415], [-118.20538, 33.8742], [-118.20547, 33.87055], [-118.20277, 33.87063], [-118.20544, 33.88127], [-118.20658, 33.88128]]]]}, "properties": {"grade": "C", "category": "Definitely Declining", "label": "C146", "fill": "#e0b020"}}, {"type": "Feature", "geometry": {"type": "MultiPolygon", "coordinates": [[[[-118.20036, 33.86634], [-118.1991, 33.86635], [-118.1977, 33.86602], [-118.19562, 33.86867], [-118.19654, 33.86923], [-118.1965, 33.8745], [-118.19772, 33.87451], [-118.19785, 33.88141], [-118.20418, 33.88127], [-118.20101, 33.87069], [-118.20173, 33.87061], [-118.20036, 33.86634]]]]}, "properties": {"grade": "C", "category": "Definitely Declining", "label": "C147", "fill": "#e0b020"}}, {"type": "Feature", "geometry": {"type": "MultiPolygon", "coordinates": [[[[-118.17708, 33.85072], [-118.17568, 33.85124], [-118.17408, 33.85158], [-118.1679, 33.85035], [-118.16796, 33.85427], [-118.16879, 33.85531], [-118.16873, 33.85684], [-118.17348, 33.85689], [-118.17354, 33.85992], [-118.16914, 33.86004], [-118.16873, 33.86036], [-118.16867, 33.86606], [-118.16855, 33.86648], [-118.16451, 33.86661], [-118.16475, 33.86836], [-118.16858, 33.86826], [-118.16876, 33.8725], [-118.1599, 33.8725], [-118.1599, 33.86853], [-118.15135, 33.86865], [-118.15141, 33.8819], [-118.15993, 33.88197], [-118.15999, 33.87475], [-118.16861, 33.87465], [-118.16867, 33.87837], [-118.17737, 33.87827], [-118.17731, 33.8854], [-118.18471, 33.8855], [-118.18498, 33.87825], [-118.18388, 33.87825], [-118.18376, 33.87465], [-118.18204, 33.87457], [-118.18201, 33.87139], [-118.17734, 33.87149], [-118.17729, 33.86848], [-118.17731, 33.86759], [-118.17732, 33.86708], [-118.17714, 33.85436], [-118.17709, 33.85098], [-118.17708, 33.85072]]]]}, "properties": {"grade": "C", "category": "Definitely Declining", "label": "C148", "fill": "#e0b020"}}, {"type": "Feature", "geometry": {"type": "MultiPolygon", "coordinates": [[[[-118.19353, 33.84361], [-118.19846, 33.85608], [-118.19846, 33.85607], [-118.20088, 33.85163], [-118.20064, 33.84105], [-118.19353, 33.84361]]], [[[-118.18757, 33.84576], [-118.18662, 33.84786], [-118.18614, 33.84852], [-118.18564, 33.84929], [-118.18591, 33.86535], [-118.18611, 33.86703], [-118.19271, 33.85812], [-118.19677, 33.85731], [-118.19173, 33.84426], [-118.18757, 33.84576]]], [[[-118.18386, 33.85812], [-118.18103, 33.85824], [-118.18097, 33.86705], [-118.17732, 33.86708], [-118.17731, 33.86759], [-118.17729, 33.86848], [-118.17732, 33.86848], [-118.18201, 33.86836], [-118.18207, 33.86532], [-118.18397, 33.86534], [-118.18386, 33.85812]]]]}, "properties": {"grade": "C", "category": "Definitely Declining", "label": "C149", "fill": "#e0b020"}}, {"type": "Feature", "geometry": {"type": "MultiPolygon", "coordinates": [[[[-118.17709, 33.85098], [-118.18127, 33.85259], [-118.18285, 33.85253], [-118.18349, 33.85251], [-118.18564, 33.84929], [-118.18614, 33.84852], [-118.18662, 33.84786], [-118.18757, 33.84576], [-118.18247, 33.84743], [-118.177, 33.84939], [-118.17708, 33.85072], [-118.17709, 33.85098]]]]}, "properties": {"grade": "C", "category": "Definitely Declining", "label": "C150", "fill": "#e0b020"}}, {"type": "Feature", "geometry": {"type": "MultiPolygon", "coordinates": [[[[-118.22619, 33.83176], [-118.21755, 33.83165], [-118.21468, 33.83945], [-118.22312, 33.83942], [-118.22619, 33.83176]]]]}, "properties": {"grade": "C", "category": "Definitely Declining", "label": "C151", "fill": "#e0b020"}}, {"type": "Feature", "geometry": {"type": "MultiPolygon", "coordinates": [[[[-118.16761, 33.81992], [-118.17079, 33.82019], [-118.17075, 33.82409], [-118.1879, 33.82418], [-118.1879, 33.82673], [-118.18933, 33.82668], [-118.19849, 33.82635], [-118.19835, 33.82555], [-118.19425, 33.82208], [-118.18373, 33.82223], [-118.18366, 33.8203], [-118.17428, 33.82021], [-118.1741, 33.81989], [-118.1741, 33.81891], [-118.17194, 33.81877], [-118.16764, 33.8188], [-118.16761, 33.81992]]]]}, "properties": {"grade": "C", "category": "Definitely Declining", "label": "C152", "fill": "#e0b020"}}, {"type": "Feature", "geometry": {"type": "MultiPolygon", "coordinates": [[[[-118.20897, 33.79349], [-118.20672, 33.79343], [-118.20669, 33.81894], [-118.211, 33.81903], [-118.21118, 33.82379], [-118.2136, 33.82424], [-118.22491, 33.82433], [-118.22505, 33.82222], [-118.22473, 33.82193], [-118.22376, 33.81849], [-118.21556, 33.81861], [-118.21564, 33.81429], [-118.21574, 33.81399], [-118.22148, 33.81396], [-118.22148, 33.8091], [-118.21564, 33.80907], [-118.2156, 33.8115], [-118.21125, 33.81153], [-118.21129, 33.80433], [-118.22009, 33.80433], [-118.22013, 33.79725], [-118.20904, 33.7971], [-118.20897, 33.79349]]]]}, "properties": {"grade": "C", "category": "Definitely Declining", "label": "C153", "fill": "#e0b020"}}, {"type": "Feature", "geometry": {"type": "MultiPolygon", "coordinates": [[[[-118.19368, 33.80445], [-118.19373, 33.81685], [-118.19534, 33.81713], [-118.19796, 33.81699], [-118.19801, 33.81518], [-118.20316, 33.81508], [-118.2032, 33.80441], [-118.19368, 33.80445]]]]}, "properties": {"grade": "C", "category": "Definitely Declining", "label": "C154", "fill": "#e0b020"}}, {"type": "Feature", "geometry": {"type": "MultiPolygon", "coordinates": [[[[-118.19256, 33.7839], [-118.1926, 33.79342], [-118.19017, 33.79345], [-118.19011, 33.80431], [-118.19036, 33.80447], [-118.19368, 33.80445], [-118.2032, 33.80441], [-118.20328, 33.7994], [-118.20346, 33.79711], [-118.20322, 33.78886], [-118.19808, 33.78896], [-118.19796, 33.7839], [-118.19256, 33.7839]]]]}, "properties": {"grade": "C", "category": "Definitely Declining", "label": "C155", "fill": "#e0b020"}}, {"type": "Feature", "geometry": {"type": "MultiPolygon", "coordinates": [[[[-118.13759, 33.77188], [-118.1418, 33.77484], [-118.14165, 33.78243], [-118.13238, 33.78261], [-118.1418, 33.78936], [-118.14272, 33.78883], [-118.14286, 33.7883], [-118.14329, 33.78776], [-118.14575, 33.78766], [-118.14593, 33.78344], [-118.14858, 33.78338], [-118.14859, 33.78237], [-118.15013, 33.78259], [-118.15845, 33.78244], [-118.16193, 33.78249], [-118.16781, 33.78249], [-118.16909, 33.78254], [-118.17277, 33.78264], [-118.17779, 33.78269], [-118.1778, 33.78266], [-118.17886, 33.7792], [-118.17628, 33.77925], [-118.17625, 33.77891], [-118.17644, 33.77848], [-118.17913, 33.77843], [-118.17988, 33.77598], [-118.17804, 33.77597], [-118.17804, 33.77474], [-118.18047, 33.77461], [-118.18085, 33.77297], [-118.17798, 33.77298], [-118.17802, 33.77178], [-118.1813, 33.77178], [-118.18154, 33.77089], [-118.17828, 33.77044], [-118.17866, 33.76877], [-118.16563, 33.76693], [-118.16433, 33.7714], [-118.16002, 33.77142], [-118.15996, 33.77165], [-118.14867, 33.77172], [-118.13759, 33.77188]], [[-118.14863, 33.77543], [-118.14861, 33.77715], [-118.147, 33.77715], [-118.14714, 33.77538], [-118.14863, 33.77543]]]]}, "properties": {"grade": "C", "category": "Definitely Declining", "label": "C156", "fill": "#e0b020"}}, {"type": "Feature", "geometry": {"type": "MultiPolygon", "coordinates": [[[[-118.12111, 33.77363], [-118.12865, 33.77373], [-118.13198, 33.77368], [-118.13192, 33.77185], [-118.13121, 33.77165], [-118.13121, 33.77086], [-118.13079, 33.77071], [-118.13061, 33.76987], [-118.12425, 33.76982], [-118.12414, 33.7681], [-118.12116, 33.7681], [-118.12111, 33.77363]]]]}, "properties": {"grade": "C", "category": "Definitely Declining", "label": "C157", "fill": "#e0b020"}}, {"type": "Feature", "geometry": {"type": "MultiPolygon", "coordinates": [[[[-118.22586, 33.90151], [-118.236, 33.90149], [-118.23624, 33.90329], [-118.24069, 33.90341], [-118.24173, 33.90341], [-118.24154, 33.89605], [-118.23085, 33.89605], [-118.23061, 33.89412], [-118.23066, 33.89218], [-118.22619, 33.89224], [-118.22578, 33.88762], [-118.22785, 33.88761], [-118.22785, 33.88614], [-118.22469, 33.8862], [-118.22543, 33.90142], [-118.22586, 33.90151]]]]}, "properties": {"grade": "C", "category": "Definitely Declining", "label": "C158", "fill": "#e0b020"}}, {"type": "Feature", "geometry": {"type": "MultiPolygon", "coordinates": [[[[-118.0833, 33.85845], [-118.08336, 33.86847], [-118.08098, 33.86852], [-118.08104, 33.8586], [-118.07908, 33.85845], [-118.0691, 33.85219], [-118.06506, 33.85248], [-118.06529, 33.85885], [-118.07243, 33.8587], [-118.07272, 33.87301], [-118.09073, 33.87296], [-118.09085, 33.85841], [-118.0833, 33.85845]]]]}, "properties": {"grade": "D", "category": "Hazardous", "label": "D59", "fill": "#d24b57"}}, {"type": "Feature", "geometry": {"type": "MultiPolygon", "coordinates": [[[[-118.17194, 33.81877], [-118.1741, 33.81891], [-118.1741, 33.81989], [-118.17428, 33.82021], [-118.18366, 33.8203], [-118.18373, 33.82223], [-118.19425, 33.82208], [-118.19712, 33.82189], [-118.19688, 33.81888], [-118.19533, 33.81891], [-118.19534, 33.81713], [-118.19373, 33.81685], [-118.19368, 33.80445], [-118.19036, 33.80447], [-118.19033, 33.81835], [-118.1786, 33.81836], [-118.17851, 33.81532], [-118.17622, 33.81527], [-118.1762, 33.817], [-118.17198, 33.81717], [-118.17194, 33.81877]]]]}, "properties": {"grade": "D", "category": "Hazardous", "label": "D62", "fill": "#d24b57"}}, {"type": "Feature", "geometry": {"type": "MultiPolygon", "coordinates": [[[[-118.19256, 33.7839], [-118.19006, 33.78393], [-118.19006, 33.78888], [-118.19255, 33.78892], [-118.19256, 33.7908], [-118.19003, 33.79071], [-118.19, 33.79338], [-118.18851, 33.7934], [-118.18852, 33.79077], [-118.18508, 33.79073], [-118.18508, 33.78896], [-118.18849, 33.78894], [-118.18833, 33.78395], [-118.17733, 33.78406], [-118.17782, 33.78266], [-118.1778, 33.78266], [-118.17779, 33.78269], [-118.17277, 33.78264], [-118.16909, 33.78254], [-118.16781, 33.78249], [-118.16193, 33.78249], [-118.15845, 33.78244], [-118.15013, 33.78259], [-118.14859, 33.78237], [-118.14858, 33.78338], [-118.14593, 33.78344], [-118.14575, 33.78766], [-118.14565, 33.79001], [-118.14258, 33.79019], [-118.14851, 33.79527], [-118.15144, 33.79726], [-118.15123, 33.80652], [-118.1514, 33.81054], [-118.15562, 33.81044], [-118.15792, 33.81107], [-118.15929, 33.8116], [-118.16779, 33.81161], [-118.16764, 33.8188], [-118.17194, 33.81877], [-118.17198, 33.81717], [-118.1762, 33.817], [-118.17622, 33.81527], [-118.17851, 33.81532], [-118.1786, 33.81836], [-118.19033, 33.81835], [-118.19036, 33.80447], [-118.19011, 33.80431], [-118.19017, 33.79345], [-118.1926, 33.79342], [-118.19256, 33.7839]], [[-118.18057, 33.80608], [-118.17888, 33.80615], [-118.17654, 33.80616], [-118.17653, 33.8047], [-118.18047, 33.80462], [-118.18057, 33.80608]], [[-118.185, 33.78579], [-118.18502, 33.78797], [-118.18076, 33.78795], [-118.18069, 33.78578], [-118.185, 33.78579]]]]}, "properties": {"grade": "D", "category": "Hazardous", "label": "D63", "fill": "#d24b57"}}, {"type": "Feature", "geometry": {"type": "MultiPolygon", "coordinates": [[[[-118.19938, 33.78142], [-118.20216, 33.77939], [-118.20275, 33.77873], [-118.20332, 33.77794], [-118.20361, 33.77704], [-118.20361, 33.77607], [-118.20328, 33.77551], [-118.20404, 33.77435], [-118.20401, 33.77054], [-118.20354, 33.76927], [-118.20299, 33.7687], [-118.20209, 33.7681], [-118.20092, 33.76779], [-118.19957, 33.76771], [-118.19938, 33.78142]]]]}, "properties": {"grade": "D", "category": "Hazardous", "label": "D64", "fill": "#d24b57"}}]}