{"type": "FeatureCollection", "features": [{"type": "Feature", "geometry": {"type": "Point", "coordinates": [-118.184, 33.768]}, "properties": {"count": 709}}, {"type": "Feature", "geometry": {"type": "Point", "coordinates": [-118.192, 33.78]}, "properties": {"count": 383}}, {"type": "Feature", "geometry": {"type": "Point", "coordinates": [-118.168, 33.776]}, "properties": {"count": 676}}, {"type": "Feature", "geometry": {"type": "Point", "coordinates": [-118.172, 33.776]}, "properties": {"count": 466}}, {"type": "Feature", "geometry": {"type": "Point", "coordinates": [-118.2, 33.772]}, "properties": {"count": 380}}, {"type": "Feature", "geometry": {"type": "Point", "coordinates": [-118.196, 33.772]}, "properties": {"count": 642}}, {"type": "Feature", "geometry": {"type": "Point", "coordinates": [-118.184, 33.772]}, "properties": {"count": 422}}, {"type": "Feature", "geometry": {"type": "Point", "coordinates": [-118.176, 33.776]}, "properties": {"count": 812}}, {"type": "Feature", "geometry": {"type": "Point", "coordinates": [-118.196, 33.776]}, "properties": {"count": 868}}, {"type": "Feature", "geometry": {"type": "Point", "coordinates": [-118.188, 33.772]}, "properties": {"count": 186}}, {"type": "Feature", "geometry": {"type": "Point", "coordinates": [-118.196, 33.78]}, "properties": {"count": 514}}, {"type": "Feature", "geometry": {"type": "Point", "coordinates": [-118.18, 33.776]}, "properties": {"count": 510}}, {"type": "Feature", "geometry": {"type": "Point", "coordinates": [-118.196, 33.768]}, "properties": {"count": 117}}, {"type": "Feature", "geometry": {"type": "Point", "coordinates": [-118.192, 33.772]}, "properties": {"count": 188}}, {"type": "Feature", "geometry": {"type": "Point", "coordinates": [-118.184, 33.78]}, "properties": {"count": 336}}, {"type": "Feature", "geometry": {"type": "Point", "coordinates": [-118.192, 33.776]}, "properties": {"count": 479}}, {"type": "Feature", "geometry": {"type": "Point", "coordinates": [-118.2, 33.776]}, "properties": {"count": 380}}, {"type": "Feature", "geometry": {"type": "Point", "coordinates": [-118.196, 33.784]}, "properties": {"count": 394}}, {"type": "Feature", "geometry": {"type": "Point", "coordinates": [-118.188, 33.776]}, "properties": {"count": 379}}, {"type": "Feature", "geometry": {"type": "Point", "coordinates": [-118.192, 33.788]}, "properties": {"count": 294}}, {"type": "Feature", "geometry": {"type": "Point", "coordinates": [-118.184, 33.776]}, "properties": {"count": 714}}, {"type": "Feature", "geometry": {"type": "Point", "coordinates": [-118.172, 33.78]}, "properties": {"count": 364}}, {"type": "Feature", "geometry": {"type": "Point", "coordinates": [-118.192, 33.784]}, "properties": {"count": 308}}, {"type": "Feature", "geometry": {"type": "Point", "coordinates": [-118.2, 33.78]}, "properties": {"count": 261}}, {"type": "Feature", "geometry": {"type": "Point", "coordinates": [-118.196, 33.788]}, "properties": {"count": 262}}, {"type": "Feature", "geometry": {"type": "Point", "coordinates": [-118.188, 33.78]}, "properties": {"count": 217}}, {"type": "Feature", "geometry": {"type": "Point", "coordinates": [-118.188, 33.784]}, "properties": {"count": 302}}, {"type": "Feature", "geometry": {"type": "Point", "coordinates": [-118.188, 33.768]}, "properties": {"count": 170}}, {"type": "Feature", "geometry": {"type": "Point", "coordinates": [-118.176, 33.78]}, "properties": {"count": 522}}, {"type": "Feature", "geometry": {"type": "Point", "coordinates": [-118.204, 33.776]}, "properties": {"count": 22}}, {"type": "Feature", "geometry": {"type": "Point", "coordinates": [-118.184, 33.788]}, "properties": {"count": 57}}, {"type": "Feature", "geometry": {"type": "Point", "coordinates": [-118.188, 33.792]}, "properties": {"count": 331}}, {"type": "Feature", "geometry": {"type": "Point", "coordinates": [-118.196, 33.792]}, "properties": {"count": 566}}, {"type": "Feature", "geometry": {"type": "Point", "coordinates": [-118.176, 33.792]}, "properties": {"count": 178}}, {"type": "Feature", "geometry": {"type": "Point", "coordinates": [-118.2, 33.788]}, "properties": {"count": 81}}, {"type": "Feature", "geometry": {"type": "Point", "coordinates": [-118.192, 33.768]}, "properties": {"count": 148}}, {"type": "Feature", "geometry": {"type": "Point", "coordinates": [-118.2, 33.784]}, "properties": {"count": 70}}, {"type": "Feature", "geometry": {"type": "Point", "coordinates": [-118.18, 33.78]}, "properties": {"count": 315}}, {"type": "Feature", "geometry": {"type": "Point", "coordinates": [-118.184, 33.784]}, "properties": {"count": 232}}, {"type": "Feature", "geometry": {"type": "Point", "coordinates": [-118.2, 33.792]}, "properties": {"count": 247}}, {"type": "Feature", "geometry": {"type": "Point", "coordinates": [-118.184, 33.792]}, "properties": {"count": 476}}, {"type": "Feature", "geometry": {"type": "Point", "coordinates": [-118.204, 33.78]}, "properties": {"count": 56}}, {"type": "Feature", "geometry": {"type": "Point", "coordinates": [-118.188, 33.788]}, "properties": {"count": 231}}, {"type": "Feature", "geometry": {"type": "Point", "coordinates": [-118.192, 33.792]}, "properties": {"count": 546}}, {"type": "Feature", "geometry": {"type": "Point", "coordinates": [-118.2, 33.768]}, "properties": {"count": 23}}, {"type": "Feature", "geometry": {"type": "Point", "coordinates": [-118.212, 33.792]}, "properties": {"count": 374}}, {"type": "Feature", "geometry": {"type": "Point", "coordinates": [-118.18, 33.792]}, "properties": {"count": 188}}, {"type": "Feature", "geometry": {"type": "Point", "coordinates": [-118.168, 33.78]}, "properties": {"count": 418}}, {"type": "Feature", "geometry": {"type": "Point", "coordinates": [-118.216, 33.792]}, "properties": {"count": 205}}, {"type": "Feature", "geometry": {"type": "Point", "coordinates": [-118.18, 33.772]}, "properties": {"count": 359}}, {"type": "Feature", "geometry": {"type": "Point", "coordinates": [-118.204, 33.784]}, "properties": {"count": 9}}, {"type": "Feature", "geometry": {"type": "Point", "coordinates": [-118.196, 33.764]}, "properties": {"count": 2}}, {"type": "Feature", "geometry": {"type": "Point", "coordinates": [-118.192, 33.764]}, "properties": {"count": 6}}, {"type": "Feature", "geometry": {"type": "Point", "coordinates": [-118.172, 33.792]}, "properties": {"count": 45}}, {"type": "Feature", "geometry": {"type": "Point", "coordinates": [-118.204, 33.788]}, "properties": {"count": 4}}, {"type": "Feature", "geometry": {"type": "Point", "coordinates": [-118.184, 33.764]}, "properties": {"count": 1}}, {"type": "Feature", "geometry": {"type": "Point", "coordinates": [-118.2, 33.764]}, "properties": {"count": 1}}, {"type": "Feature", "geometry": {"type": "Point", "coordinates": [-118.156, 33.764]}, "properties": {"count": 107}}, {"type": "Feature", "geometry": {"type": "Point", "coordinates": [-118.168, 33.772]}, "properties": {"count": 359}}, {"type": "Feature", "geometry": {"type": "Point", "coordinates": [-118.172, 33.768]}, "properties": {"count": 378}}, {"type": "Feature", "geometry": {"type": "Point", "coordinates": [-118.168, 33.768]}, "properties": {"count": 517}}, {"type": "Feature", "geometry": {"type": "Point", "coordinates": [-118.176, 33.768]}, "properties": {"count": 660}}, {"type": "Feature", "geometry": {"type": "Point", "coordinates": [-118.156, 33.78]}, "properties": {"count": 219}}, {"type": "Feature", "geometry": {"type": "Point", "coordinates": [-118.16, 33.78]}, "properties": {"count": 510}}, {"type": "Feature", "geometry": {"type": "Point", "coordinates": [-118.156, 33.768]}, "properties": {"count": 175}}, {"type": "Feature", "geometry": {"type": "Point", "coordinates": [-118.176, 33.772]}, "properties": {"count": 464}}, {"type": "Feature", "geometry": {"type": "Point", "coordinates": [-118.16, 33.784]}, "properties": {"count": 429}}, {"type": "Feature", "geometry": {"type": "Point", "coordinates": [-118.164, 33.776]}, "properties": {"count": 392}}, {"type": "Feature", "geometry": {"type": "Point", "coordinates": [-118.164, 33.772]}, "properties": {"count": 94}}, {"type": "Feature", "geometry": {"type": "Point", "coordinates": [-118.172, 33.772]}, "properties": {"count": 290}}, {"type": "Feature", "geometry": {"type": "Point", "coordinates": [-118.156, 33.784]}, "properties": {"count": 211}}, {"type": "Feature", "geometry": {"type": "Point", "coordinates": [-118.16, 33.776]}, "properties": {"count": 536}}, {"type": "Feature", "geometry": {"type": "Point", "coordinates": [-118.164, 33.784]}, "properties": {"count": 331}}, {"type": "Feature", "geometry": {"type": "Point", "coordinates": [-118.156, 33.788]}, "properties": {"count": 206}}, {"type": "Feature", "geometry": {"type": "Point", "coordinates": [-118.176, 33.764]}, "properties": {"count": 68}}, {"type": "Feature", "geometry": {"type": "Point", "coordinates": [-118.16, 33.764]}, "properties": {"count": 111}}, {"type": "Feature", "geometry": {"type": "Point", "coordinates": [-118.152, 33.76]}, "properties": {"count": 130}}, {"type": "Feature", "geometry": {"type": "Point", "coordinates": [-118.152, 33.764]}, "properties": {"count": 246}}, {"type": "Feature", "geometry": {"type": "Point", "coordinates": [-118.152, 33.776]}, "properties": {"count": 507}}, {"type": "Feature", "geometry": {"type": "Point", "coordinates": [-118.16, 33.772]}, "properties": {"count": 279}}, {"type": "Feature", "geometry": {"type": "Point", "coordinates": [-118.152, 33.788]}, "properties": {"count": 385}}, {"type": "Feature", "geometry": {"type": "Point", "coordinates": [-118.18, 33.768]}, "properties": {"count": 410}}, {"type": "Feature", "geometry": {"type": "Point", "coordinates": [-118.152, 33.78]}, "properties": {"count": 373}}, {"type": "Feature", "geometry": {"type": "Point", "coordinates": [-118.156, 33.776]}, "properties": {"count": 304}}, {"type": "Feature", "geometry": {"type": "Point", "coordinates": [-118.16, 33.768]}, "properties": {"count": 394}}, {"type": "Feature", "geometry": {"type": "Point", "coordinates": [-118.172, 33.764]}, "properties": {"count": 80}}, {"type": "Feature", "geometry": {"type": "Point", "coordinates": [-118.16, 33.788]}, "properties": {"count": 167}}, {"type": "Feature", "geometry": {"type": "Point", "coordinates": [-118.164, 33.768]}, "properties": {"count": 138}}, {"type": "Feature", "geometry": {"type": "Point", "coordinates": [-118.152, 33.784]}, "properties": {"count": 445}}, {"type": "Feature", "geometry": {"type": "Point", "coordinates": [-118.156, 33.772]}, "properties": {"count": 164}}, {"type": "Feature", "geometry": {"type": "Point", "coordinates": [-118.164, 33.78]}, "properties": {"count": 273}}, {"type": "Feature", "geometry": {"type": "Point", "coordinates": [-118.152, 33.772]}, "properties": {"count": 233}}, {"type": "Feature", "geometry": {"type": "Point", "coordinates": [-118.152, 33.768]}, "properties": {"count": 240}}, {"type": "Feature", "geometry": {"type": "Point", "coordinates": [-118.168, 33.764]}, "properties": {"count": 78}}, {"type": "Feature", "geometry": {"type": "Point", "coordinates": [-118.16, 33.76]}, "properties": {"count": 11}}, {"type": "Feature", "geometry": {"type": "Point", "coordinates": [-118.164, 33.792]}, "properties": {"count": 26}}, {"type": "Feature", "geometry": {"type": "Point", "coordinates": [-118.18, 33.764]}, "properties": {"count": 4}}, {"type": "Feature", "geometry": {"type": "Point", "coordinates": [-118.164, 33.788]}, "properties": {"count": 139}}, {"type": "Feature", "geometry": {"type": "Point", "coordinates": [-118.16, 33.792]}, "properties": {"count": 19}}, {"type": "Feature", "geometry": {"type": "Point", "coordinates": [-118.164, 33.764]}, "properties": {"count": 32}}, {"type": "Feature", "geometry": {"type": "Point", "coordinates": [-118.156, 33.8]}, "properties": {"count": 2}}, {"type": "Feature", "geometry": {"type": "Point", "coordinates": [-118.156, 33.76]}, "properties": {"count": 10}}, {"type": "Feature", "geometry": {"type": "Point", "coordinates": [-118.136, 33.756]}, "properties": {"count": 207}}, {"type": "Feature", "geometry": {"type": "Point", "coordinates": [-118.144, 33.784]}, "properties": {"count": 219}}, {"type": "Feature", "geometry": {"type": "Point", "coordinates": [-118.108, 33.772]}, "properties": {"count": 17}}, {"type": "Feature", "geometry": {"type": "Point", "coordinates": [-118.128, 33.756]}, "properties": {"count": 38}}, {"type": "Feature", "geometry": {"type": "Point", "coordinates": [-118.128, 33.764]}, "properties": {"count": 70}}, {"type": "Feature", "geometry": {"type": "Point", "coordinates": [-118.12, 33.752]}, "properties": {"count": 35}}, {"type": "Feature", "geometry": {"type": "Point", "coordinates": [-118.144, 33.768]}, "properties": {"count": 163}}, {"type": "Feature", "geometry": {"type": "Point", "coordinates": [-118.14, 33.776]}, "properties": {"count": 91}}, {"type": "Feature", "geometry": {"type": "Point", "coordinates": [-118.148, 33.768]}, "properties": {"count": 96}}, {"type": "Feature", "geometry": {"type": "Point", "coordinates": [-118.136, 33.752]}, "properties": {"count": 6}}, {"type": "Feature", "geometry": {"type": "Point", "coordinates": [-118.148, 33.776]}, "properties": {"count": 178}}, {"type": "Feature", "geometry": {"type": "Point", "coordinates": [-118.148, 33.784]}, "properties": {"count": 115}}, {"type": "Feature", "geometry": {"type": "Point", "coordinates": [-118.144, 33.78]}, "properties": {"count": 342}}, {"type": "Feature", "geometry": {"type": "Point", "coordinates": [-118.144, 33.764]}, "properties": {"count": 95}}, {"type": "Feature", "geometry": {"type": "Point", "coordinates": [-118.128, 33.76]}, "properties": {"count": 151}}, {"type": "Feature", "geometry": {"type": "Point", "coordinates": [-118.12, 33.776]}, "properties": {"count": 38}}, {"type": "Feature", "geometry": {"type": "Point", "coordinates": [-118.128, 33.752]}, "properties": {"count": 48}}, {"type": "Feature", "geometry": {"type": "Point", "coordinates": [-118.132, 33.76]}, "properties": {"count": 235}}, {"type": "Feature", "geometry": {"type": "Point", "coordinates": [-118.12, 33.756]}, "properties": {"count": 42}}, {"type": "Feature", "geometry": {"type": "Point", "coordinates": [-118.136, 33.76]}, "properties": {"count": 315}}, {"type": "Feature", "geometry": {"type": "Point", "coordinates": [-118.14, 33.76]}, "properties": {"count": 169}}, {"type": "Feature", "geometry": {"type": "Point", "coordinates": [-118.148, 33.764]}, "properties": {"count": 124}}, {"type": "Feature", "geometry": {"type": "Point", "coordinates": [-118.144, 33.776]}, "properties": {"count": 334}}, {"type": "Feature", "geometry": {"type": "Point", "coordinates": [-118.12, 33.748]}, "properties": {"count": 88}}, {"type": "Feature", "geometry": {"type": "Point", "coordinates": [-118.136, 33.768]}, "properties": {"count": 114}}, {"type": "Feature", "geometry": {"type": "Point", "coordinates": [-118.148, 33.76]}, "properties": {"count": 185}}, {"type": "Feature", "geometry": {"type": "Point", "coordinates": [-118.132, 33.764]}, "properties": {"count": 91}}, {"type": "Feature", "geometry": {"type": "Point", "coordinates": [-118.148, 33.78]}, "properties": {"count": 149}}, {"type": "Feature", "geometry": {"type": "Point", "coordinates": [-118.124, 33.748]}, "properties": {"count": 67}}, {"type": "Feature", "geometry": {"type": "Point", "coordinates": [-118.144, 33.76]}, "properties": {"count": 278}}, {"type": "Feature", "geometry": {"type": "Point", "coordinates": [-118.14, 33.764]}, "properties": {"count": 55}}, {"type": "Feature", "geometry": {"type": "Point", "coordinates": [-118.148, 33.772]}, "properties": {"count": 136}}, {"type": "Feature", "geometry": {"type": "Point", "coordinates": [-118.136, 33.776]}, "properties": {"count": 38}}, {"type": "Feature", "geometry": {"type": "Point", "coordinates": [-118.144, 33.772]}, "properties": {"count": 181}}, {"type": "Feature", "geometry": {"type": "Point", "coordinates": [-118.124, 33.752]}, "properties": {"count": 36}}, {"type": "Feature", "geometry": {"type": "Point", "coordinates": [-118.14, 33.784]}, "properties": {"count": 115}}, {"type": "Feature", "geometry": {"type": "Point", "coordinates": [-118.116, 33.768]}, "properties": {"count": 8}}, {"type": "Feature", "geometry": {"type": "Point", "coordinates": [-118.14, 33.768]}, "properties": {"count": 116}}, {"type": "Feature", "geometry": {"type": "Point", "coordinates": [-118.148, 33.788]}, "properties": {"count": 42}}, {"type": "Feature", "geometry": {"type": "Point", "coordinates": [-118.124, 33.756]}, "properties": {"count": 61}}, {"type": "Feature", "geometry": {"type": "Point", "coordinates": [-118.144, 33.788]}, "properties": {"count": 68}}, {"type": "Feature", "geometry": {"type": "Point", "coordinates": [-118.116, 33.76]}, "properties": {"count": 5}}, {"type": "Feature", "geometry": {"type": "Point", "coordinates": [-118.108, 33.768]}, "properties": {"count": 13}}, {"type": "Feature", "geometry": {"type": "Point", "coordinates": [-118.112, 33.768]}, "properties": {"count": 31}}, {"type": "Feature", "geometry": {"type": "Point", "coordinates": [-118.124, 33.776]}, "properties": {"count": 131}}, {"type": "Feature", "geometry": {"type": "Point", "coordinates": [-118.128, 33.772]}, "properties": {"count": 41}}, {"type": "Feature", "geometry": {"type": "Point", "coordinates": [-118.136, 33.764]}, "properties": {"count": 62}}, {"type": "Feature", "geometry": {"type": "Point", "coordinates": [-118.128, 33.776]}, "properties": {"count": 56}}, {"type": "Feature", "geometry": {"type": "Point", "coordinates": [-118.12, 33.76]}, "properties": {"count": 17}}, {"type": "Feature", "geometry": {"type": "Point", "coordinates": [-118.124, 33.76]}, "properties": {"count": 28}}, {"type": "Feature", "geometry": {"type": "Point", "coordinates": [-118.14, 33.78]}, "properties": {"count": 45}}, {"type": "Feature", "geometry": {"type": "Point", "coordinates": [-118.14, 33.772]}, "properties": {"count": 124}}, {"type": "Feature", "geometry": {"type": "Point", "coordinates": [-118.124, 33.772]}, "properties": {"count": 47}}, {"type": "Feature", "geometry": {"type": "Point", "coordinates": [-118.136, 33.772]}, "properties": {"count": 37}}, {"type": "Feature", "geometry": {"type": "Point", "coordinates": [-118.116, 33.772]}, "properties": {"count": 11}}, {"type": "Feature", "geometry": {"type": "Point", "coordinates": [-118.136, 33.784]}, "properties": {"count": 181}}, {"type": "Feature", "geometry": {"type": "Point", "coordinates": [-118.128, 33.768]}, "properties": {"count": 13}}, {"type": "Feature", "geometry": {"type": "Point", "coordinates": [-118.204, 33.88]}, "properties": {"count": 179}}, {"type": "Feature", "geometry": {"type": "Point", "coordinates": [-118.148, 33.792]}, "properties": {"count": 17}}, {"type": "Feature", "geometry": {"type": "Point", "coordinates": [-118.14, 33.788]}, "properties": {"count": 75}}, {"type": "Feature", "geometry": {"type": "Point", "coordinates": [-118.116, 33.764]}, "properties": {"count": 16}}, {"type": "Feature", "geometry": {"type": "Point", "coordinates": [-118.12, 33.768]}, "properties": {"count": 20}}, {"type": "Feature", "geometry": {"type": "Point", "coordinates": [-118.124, 33.768]}, "properties": {"count": 37}}, {"type": "Feature", "geometry": {"type": "Point", "coordinates": [-118.116, 33.776]}, "properties": {"count": 9}}, {"type": "Feature", "geometry": {"type": "Point", "coordinates": [-118.132, 33.752]}, "properties": {"count": 38}}, {"type": "Feature", "geometry": {"type": "Point", "coordinates": [-118.14, 33.756]}, "properties": {"count": 48}}, {"type": "Feature", "geometry": {"type": "Point", "coordinates": [-118.132, 33.756]}, "properties": {"count": 53}}, {"type": "Feature", "geometry": {"type": "Point", "coordinates": [-118.196, 33.856]}, "properties": {"count": 314}}, {"type": "Feature", "geometry": {"type": "Point", "coordinates": [-118.116, 33.752]}, "properties": {"count": 40}}, {"type": "Feature", "geometry": {"type": "Point", "coordinates": [-118.112, 33.776]}, "properties": {"count": 8}}, {"type": "Feature", "geometry": {"type": "Point", "coordinates": [-118.112, 33.76]}, "properties": {"count": 10}}, {"type": "Feature", "geometry": {"type": "Point", "coordinates": [-118.104, 33.772]}, "properties": {"count": 9}}, {"type": "Feature", "geometry": {"type": "Point", "coordinates": [-118.172, 33.784]}, "properties": {"count": 412}}, {"type": "Feature", "geometry": {"type": "Point", "coordinates": [-118.132, 33.768]}, "properties": {"count": 21}}, {"type": "Feature", "geometry": {"type": "Point", "coordinates": [-118.104, 33.768]}, "properties": {"count": 15}}, {"type": "Feature", "geometry": {"type": "Point", "coordinates": [-118.116, 33.744]}, "properties": {"count": 3}}, {"type": "Feature", "geometry": {"type": "Point", "coordinates": [-118.112, 33.772]}, "properties": {"count": 17}}, {"type": "Feature", "geometry": {"type": "Point", "coordinates": [-118.12, 33.744]}, "properties": {"count": 14}}, {"type": "Feature", "geometry": {"type": "Point", "coordinates": [-118.132, 33.772]}, "properties": {"count": 9}}, {"type": "Feature", "geometry": {"type": "Point", "coordinates": [-118.132, 33.784]}, "properties": {"count": 51}}, {"type": "Feature", "geometry": {"type": "Point", "coordinates": [-118.12, 33.772]}, "properties": {"count": 22}}, {"type": "Feature", "geometry": {"type": "Point", "coordinates": [-118.108, 33.752]}, "properties": {"count": 3}}, {"type": "Feature", "geometry": {"type": "Point", "coordinates": [-118.12, 33.764]}, "properties": {"count": 1}}, {"type": "Feature", "geometry": {"type": "Point", "coordinates": [-118.108, 33.776]}, "properties": {"count": 7}}, {"type": "Feature", "geometry": {"type": "Point", "coordinates": [-118.112, 33.756]}, "properties": {"count": 5}}, {"type": "Feature", "geometry": {"type": "Point", "coordinates": [-118.092, 33.76]}, "properties": {"count": 4}}, {"type": "Feature", "geometry": {"type": "Point", "coordinates": [-118.212, 33.784]}, "properties": {"count": 48}}, {"type": "Feature", "geometry": {"type": "Point", "coordinates": [-118.112, 33.748]}, "properties": {"count": 2}}, {"type": "Feature", "geometry": {"type": "Point", "coordinates": [-118.108, 33.756]}, "properties": {"count": 2}}, {"type": "Feature", "geometry": {"type": "Point", "coordinates": [-118.204, 33.876]}, "properties": {"count": 67}}, {"type": "Feature", "geometry": {"type": "Point", "coordinates": [-118.096, 33.76]}, "properties": {"count": 1}}, {"type": "Feature", "geometry": {"type": "Point", "coordinates": [-118.124, 33.764]}, "properties": {"count": 4}}, {"type": "Feature", "geometry": {"type": "Point", "coordinates": [-118.176, 33.784]}, "properties": {"count": 468}}, {"type": "Feature", "geometry": {"type": "Point", "coordinates": [-118.116, 33.756]}, "properties": {"count": 2}}, {"type": "Feature", "geometry": {"type": "Point", "coordinates": [-118.072, 33.824]}, "properties": {"count": 32}}, {"type": "Feature", "geometry": {"type": "Point", "coordinates": [-118.068, 33.824]}, "properties": {"count": 26}}, {"type": "Feature", "geometry": {"type": "Point", "coordinates": [-118.12, 33.792]}, "properties": {"count": 149}}, {"type": "Feature", "geometry": {"type": "Point", "coordinates": [-118.116, 33.796]}, "properties": {"count": 47}}, {"type": "Feature", "geometry": {"type": "Point", "coordinates": [-118.116, 33.8]}, "properties": {"count": 54}}, {"type": "Feature", "geometry": {"type": "Point", "coordinates": [-118.14, 33.796]}, "properties": {"count": 35}}, {"type": "Feature", "geometry": {"type": "Point", "coordinates": [-118.132, 33.792]}, "properties": {"count": 105}}, {"type": "Feature", "geometry": {"type": "Point", "coordinates": [-118.112, 33.792]}, "properties": {"count": 103}}, {"type": "Feature", "geometry": {"type": "Point", "coordinates": [-118.132, 33.788]}, "properties": {"count": 23}}, {"type": "Feature", "geometry": {"type": "Point", "coordinates": [-118.136, 33.788]}, "properties": {"count": 93}}, {"type": "Feature", "geometry": {"type": "Point", "coordinates": [-118.072, 33.816]}, "properties": {"count": 41}}, {"type": "Feature", "geometry": {"type": "Point", "coordinates": [-118.112, 33.8]}, "properties": {"count": 108}}, {"type": "Feature", "geometry": {"type": "Point", "coordinates": [-118.104, 33.792]}, "properties": {"count": 75}}, {"type": "Feature", "geometry": {"type": "Point", "coordinates": [-118.12, 33.804]}, "properties": {"count": 30}}, {"type": "Feature", "geometry": {"type": "Point", "coordinates": [-118.116, 33.804]}, "properties": {"count": 128}}, {"type": "Feature", "geometry": {"type": "Point", "coordinates": [-118.136, 33.792]}, "properties": {"count": 40}}, {"type": "Feature", "geometry": {"type": "Point", "coordinates": [-118.08, 33.812]}, "properties": {"count": 39}}, {"type": "Feature", "geometry": {"type": "Point", "coordinates": [-118.132, 33.8]}, "properties": {"count": 49}}, {"type": "Feature", "geometry": {"type": "Point", "coordinates": [-118.144, 33.8]}, "properties": {"count": 171}}, {"type": "Feature", "geometry": {"type": "Point", "coordinates": [-118.08, 33.824]}, "properties": {"count": 44}}, {"type": "Feature", "geometry": {"type": "Point", "coordinates": [-118.14, 33.804]}, "properties": {"count": 16}}, {"type": "Feature", "geometry": {"type": "Point", "coordinates": [-118.1, 33.804]}, "properties": {"count": 19}}, {"type": "Feature", "geometry": {"type": "Point", "coordinates": [-118.152, 33.8]}, "properties": {"count": 5}}, {"type": "Feature", "geometry": {"type": "Point", "coordinates": [-118.064, 33.824]}, "properties": {"count": 26}}, {"type": "Feature", "geometry": {"type": "Point", "coordinates": [-118.124, 33.8]}, "properties": {"count": 102}}, {"type": "Feature", "geometry": {"type": "Point", "coordinates": [-118.104, 33.8]}, "properties": {"count": 140}}, {"type": "Feature", "geometry": {"type": "Point", "coordinates": [-118.124, 33.804]}, "properties": {"count": 39}}, {"type": "Feature", "geometry": {"type": "Point", "coordinates": [-118.104, 33.808]}, "properties": {"count": 115}}, {"type": "Feature", "geometry": {"type": "Point", "coordinates": [-118.112, 33.796]}, "properties": {"count": 66}}, {"type": "Feature", "geometry": {"type": "Point", "coordinates": [-118.112, 33.788]}, "properties": {"count": 18}}, {"type": "Feature", "geometry": {"type": "Point", "coordinates": [-118.108, 33.792]}, "properties": {"count": 90}}, {"type": "Feature", "geometry": {"type": "Point", "coordinates": [-118.116, 33.788]}, "properties": {"count": 19}}, {"type": "Feature", "geometry": {"type": "Point", "coordinates": [-118.116, 33.792]}, "properties": {"count": 70}}, {"type": "Feature", "geometry": {"type": "Point", "coordinates": [-118.148, 33.804]}, "properties": {"count": 13}}, {"type": "Feature", "geometry": {"type": "Point", "coordinates": [-118.076, 33.816]}, "properties": {"count": 59}}, {"type": "Feature", "geometry": {"type": "Point", "coordinates": [-118.076, 33.824]}, "properties": {"count": 12}}, {"type": "Feature", "geometry": {"type": "Point", "coordinates": [-118.064, 33.82]}, "properties": {"count": 39}}, {"type": "Feature", "geometry": {"type": "Point", "coordinates": [-118.128, 33.808]}, "properties": {"count": 69}}, {"type": "Feature", "geometry": {"type": "Point", "coordinates": [-118.12, 33.796]}, "properties": {"count": 97}}, {"type": "Feature", "geometry": {"type": "Point", "coordinates": [-118.104, 33.776]}, "properties": {"count": 41}}, {"type": "Feature", "geometry": {"type": "Point", "coordinates": [-118.148, 33.8]}, "properties": {"count": 65}}, {"type": "Feature", "geometry": {"type": "Point", "coordinates": [-118.092, 33.796]}, "properties": {"count": 27}}, {"type": "Feature", "geometry": {"type": "Point", "coordinates": [-118.092, 33.792]}, "properties": {"count": 82}}, {"type": "Feature", "geometry": {"type": "Point", "coordinates": [-118.096, 33.796]}, "properties": {"count": 26}}, {"type": "Feature", "geometry": {"type": "Point", "coordinates": [-118.132, 33.78]}, "properties": {"count": 3}}, {"type": "Feature", "geometry": {"type": "Point", "coordinates": [-118.128, 33.792]}, "properties": {"count": 92}}, {"type": "Feature", "geometry": {"type": "Point", "coordinates": [-118.128, 33.796]}, "properties": {"count": 61}}, {"type": "Feature", "geometry": {"type": "Point", "coordinates": [-118.104, 33.788]}, "properties": {"count": 57}}, {"type": "Feature", "geometry": {"type": "Point", "coordinates": [-118.108, 33.784]}, "properties": {"count": 16}}, {"type": "Feature", "geometry": {"type": "Point", "coordinates": [-118.108, 33.796]}, "properties": {"count": 39}}, {"type": "Feature", "geometry": {"type": "Point", "coordinates": [-118.096, 33.788]}, "properties": {"count": 61}}, {"type": "Feature", "geometry": {"type": "Point", "coordinates": [-118.096, 33.792]}, "properties": {"count": 164}}, {"type": "Feature", "geometry": {"type": "Point", "coordinates": [-118.144, 33.796]}, "properties": {"count": 111}}, {"type": "Feature", "geometry": {"type": "Point", "coordinates": [-118.128, 33.8]}, "properties": {"count": 98}}, {"type": "Feature", "geometry": {"type": "Point", "coordinates": [-118.124, 33.796]}, "properties": {"count": 34}}, {"type": "Feature", "geometry": {"type": "Point", "coordinates": [-118.108, 33.78]}, "properties": {"count": 17}}, {"type": "Feature", "geometry": {"type": "Point", "coordinates": [-118.092, 33.816]}, "properties": {"count": 44}}, {"type": "Feature", "geometry": {"type": "Point", "coordinates": [-118.124, 33.808]}, "properties": {"count": 49}}, {"type": "Feature", "geometry": {"type": "Point", "coordinates": [-118.128, 33.804]}, "properties": {"count": 83}}, {"type": "Feature", "geometry": {"type": "Point", "coordinates": [-118.132, 33.804]}, "properties": {"count": 38}}, {"type": "Feature", "geometry": {"type": "Point", "coordinates": [-118.124, 33.792]}, "properties": {"count": 86}}, {"type": "Feature", "geometry": {"type": "Point", "coordinates": [-118.096, 33.78]}, "properties": {"count": 27}}, {"type": "Feature", "geometry": {"type": "Point", "coordinates": [-118.116, 33.808]}, "properties": {"count": 84}}, {"type": "Feature", "geometry": {"type": "Point", "coordinates": [-118.136, 33.8]}, "properties": {"count": 63}}, {"type": "Feature", "geometry": {"type": "Point", "coordinates": [-118.148, 33.796]}, "properties": {"count": 82}}, {"type": "Feature", "geometry": {"type": "Point", "coordinates": [-118.104, 33.784]}, "properties": {"count": 85}}, {"type": "Feature", "geometry": {"type": "Point", "coordinates": [-118.14, 33.792]}, "properties": {"count": 53}}, {"type": "Feature", "geometry": {"type": "Point", "coordinates": [-118.112, 33.808]}, "properties": {"count": 61}}, {"type": "Feature", "geometry": {"type": "Point", "coordinates": [-118.096, 33.82]}, "properties": {"count": 123}}, {"type": "Feature", "geometry": {"type": "Point", "coordinates": [-118.144, 33.792]}, "properties": {"count": 117}}, {"type": "Feature", "geometry": {"type": "Point", "coordinates": [-118.14, 33.8]}, "properties": {"count": 17}}, {"type": "Feature", "geometry": {"type": "Point", "coordinates": [-118.1, 33.792]}, "properties": {"count": 73}}, {"type": "Feature", "geometry": {"type": "Point", "coordinates": [-118.108, 33.8]}, "properties": {"count": 43}}, {"type": "Feature", "geometry": {"type": "Point", "coordinates": [-118.12, 33.8]}, "properties": {"count": 53}}, {"type": "Feature", "geometry": {"type": "Point", "coordinates": [-118.1, 33.8]}, "properties": {"count": 71}}, {"type": "Feature", "geometry": {"type": "Point", "coordinates": [-118.112, 33.804]}, "properties": {"count": 44}}, {"type": "Feature", "geometry": {"type": "Point", "coordinates": [-118.08, 33.82]}, "properties": {"count": 45}}, {"type": "Feature", "geometry": {"type": "Point", "coordinates": [-118.108, 33.808]}, "properties": {"count": 38}}, {"type": "Feature", "geometry": {"type": "Point", "coordinates": [-118.104, 33.78]}, "properties": {"count": 36}}, {"type": "Feature", "geometry": {"type": "Point", "coordinates": [-118.124, 33.78]}, "properties": {"count": 18}}, {"type": "Feature", "geometry": {"type": "Point", "coordinates": [-118.096, 33.784]}, "properties": {"count": 65}}, {"type": "Feature", "geometry": {"type": "Point", "coordinates": [-118.128, 33.788]}, "properties": {"count": 29}}, {"type": "Feature", "geometry": {"type": "Point", "coordinates": [-118.1, 33.808]}, "properties": {"count": 41}}, {"type": "Feature", "geometry": {"type": "Point", "coordinates": [-118.12, 33.808]}, "properties": {"count": 55}}, {"type": "Feature", "geometry": {"type": "Point", "coordinates": [-118.104, 33.796]}, "properties": {"count": 45}}, {"type": "Feature", "geometry": {"type": "Point", "coordinates": [-118.072, 33.82]}, "properties": {"count": 36}}, {"type": "Feature", "geometry": {"type": "Point", "coordinates": [-118.108, 33.788]}, "properties": {"count": 15}}, {"type": "Feature", "geometry": {"type": "Point", "coordinates": [-118.096, 33.816]}, "properties": {"count": 102}}, {"type": "Feature", "geometry": {"type": "Point", "coordinates": [-118.144, 33.804]}, "properties": {"count": 70}}, {"type": "Feature", "geometry": {"type": "Point", "coordinates": [-118.1, 33.78]}, "properties": {"count": 46}}, {"type": "Feature", "geometry": {"type": "Point", "coordinates": [-118.104, 33.804]}, "properties": {"count": 53}}, {"type": "Feature", "geometry": {"type": "Point", "coordinates": [-118.096, 33.812]}, "properties": {"count": 87}}, {"type": "Feature", "geometry": {"type": "Point", "coordinates": [-118.132, 33.808]}, "properties": {"count": 59}}, {"type": "Feature", "geometry": {"type": "Point", "coordinates": [-118.124, 33.788]}, "properties": {"count": 34}}, {"type": "Feature", "geometry": {"type": "Point", "coordinates": [-118.1, 33.796]}, "properties": {"count": 21}}, {"type": "Feature", "geometry": {"type": "Point", "coordinates": [-118.128, 33.784]}, "properties": {"count": 24}}, {"type": "Feature", "geometry": {"type": "Point", "coordinates": [-118.132, 33.796]}, "properties": {"count": 26}}, {"type": "Feature", "geometry": {"type": "Point", "coordinates": [-118.136, 33.804]}, "properties": {"count": 18}}, {"type": "Feature", "geometry": {"type": "Point", "coordinates": [-118.1, 33.776]}, "properties": {"count": 60}}, {"type": "Feature", "geometry": {"type": "Point", "coordinates": [-118.068, 33.82]}, "properties": {"count": 28}}, {"type": "Feature", "geometry": {"type": "Point", "coordinates": [-118.076, 33.82]}, "properties": {"count": 20}}, {"type": "Feature", "geometry": {"type": "Point", "coordinates": [-118.108, 33.804]}, "properties": {"count": 20}}, {"type": "Feature", "geometry": {"type": "Point", "coordinates": [-118.08, 33.816]}, "properties": {"count": 63}}, {"type": "Feature", "geometry": {"type": "Point", "coordinates": [-118.1, 33.788]}, "properties": {"count": 33}}, {"type": "Feature", "geometry": {"type": "Point", "coordinates": [-118.156, 33.808]}, "properties": {"count": 18}}, {"type": "Feature", "geometry": {"type": "Point", "coordinates": [-118.152, 33.804]}, "properties": {"count": 12}}, {"type": "Feature", "geometry": {"type": "Point", "coordinates": [-118.1, 33.784]}, "properties": {"count": 69}}, {"type": "Feature", "geometry": {"type": "Point", "coordinates": [-118.1, 33.816]}, "properties": {"count": 41}}, {"type": "Feature", "geometry": {"type": "Point", "coordinates": [-118.136, 33.808]}, "properties": {"count": 26}}, {"type": "Feature", "geometry": {"type": "Point", "coordinates": [-118.136, 33.796]}, "properties": {"count": 27}}, {"type": "Feature", "geometry": {"type": "Point", "coordinates": [-118.12, 33.788]}, "properties": {"count": 3}}, {"type": "Feature", "geometry": {"type": "Point", "coordinates": [-118.092, 33.812]}, "properties": {"count": 33}}, {"type": "Feature", "geometry": {"type": "Point", "coordinates": [-118.128, 33.78]}, "properties": {"count": 37}}, {"type": "Feature", "geometry": {"type": "Point", "coordinates": [-118.092, 33.82]}, "properties": {"count": 42}}, {"type": "Feature", "geometry": {"type": "Point", "coordinates": [-118.124, 33.784]}, "properties": {"count": 4}}, {"type": "Feature", "geometry": {"type": "Point", "coordinates": [-118.136, 33.812]}, "properties": {"count": 13}}, {"type": "Feature", "geometry": {"type": "Point", "coordinates": [-118.152, 33.808]}, "properties": {"count": 7}}, {"type": "Feature", "geometry": {"type": "Point", "coordinates": [-118.076, 33.812]}, "properties": {"count": 16}}, {"type": "Feature", "geometry": {"type": "Point", "coordinates": [-118.16, 33.812]}, "properties": {"count": 10}}, {"type": "Feature", "geometry": {"type": "Point", "coordinates": [-118.064, 33.816]}, "properties": {"count": 1}}, {"type": "Feature", "geometry": {"type": "Point", "coordinates": [-118.088, 33.828]}, "properties": {"count": 11}}, {"type": "Feature", "geometry": {"type": "Point", "coordinates": [-118.2, 33.8]}, "properties": {"count": 310}}, {"type": "Feature", "geometry": {"type": "Point", "coordinates": [-118.092, 33.832]}, "properties": {"count": 3}}, {"type": "Feature", "geometry": {"type": "Point", "coordinates": [-118.112, 33.78]}, "properties": {"count": 2}}, {"type": "Feature", "geometry": {"type": "Point", "coordinates": [-118.084, 33.828]}, "properties": {"count": 2}}, {"type": "Feature", "geometry": {"type": "Point", "coordinates": [-118.1, 33.812]}, "properties": {"count": 45}}, {"type": "Feature", "geometry": {"type": "Point", "coordinates": [-118.16, 33.808]}, "properties": {"count": 3}}, {"type": "Feature", "geometry": {"type": "Point", "coordinates": [-118.148, 33.808]}, "properties": {"count": 2}}, {"type": "Feature", "geometry": {"type": "Point", "coordinates": [-118.152, 33.812]}, "properties": {"count": 2}}, {"type": "Feature", "geometry": {"type": "Point", "coordinates": [-118.1, 33.82]}, "properties": {"count": 22}}, {"type": "Feature", "geometry": {"type": "Point", "coordinates": [-118.152, 33.796]}, "properties": {"count": 2}}, {"type": "Feature", "geometry": {"type": "Point", "coordinates": [-118.092, 33.788]}, "properties": {"count": 3}}, {"type": "Feature", "geometry": {"type": "Point", "coordinates": [-118.156, 33.796]}, "properties": {"count": 1}}, {"type": "Feature", "geometry": {"type": "Point", "coordinates": [-118.124, 33.816]}, "properties": {"count": 93}}, {"type": "Feature", "geometry": {"type": "Point", "coordinates": [-118.128, 33.812]}, "properties": {"count": 36}}, {"type": "Feature", "geometry": {"type": "Point", "coordinates": [-118.124, 33.824]}, "properties": {"count": 105}}, {"type": "Feature", "geometry": {"type": "Point", "coordinates": [-118.192, 33.828]}, "properties": {"count": 44}}, {"type": "Feature", "geometry": {"type": "Point", "coordinates": [-118.096, 33.828]}, "properties": {"count": 79}}, {"type": "Feature", "geometry": {"type": "Point", "coordinates": [-118.192, 33.824]}, "properties": {"count": 114}}, {"type": "Feature", "geometry": {"type": "Point", "coordinates": [-118.104, 33.82]}, "properties": {"count": 70}}, {"type": "Feature", "geometry": {"type": "Point", "coordinates": [-118.168, 33.824]}, "properties": {"count": 91}}, {"type": "Feature", "geometry": {"type": "Point", "coordinates": [-118.136, 33.844]}, "properties": {"count": 124}}, {"type": "Feature", "geometry": {"type": "Point", "coordinates": [-118.116, 33.824]}, "properties": {"count": 96}}, {"type": "Feature", "geometry": {"type": "Point", "coordinates": [-118.104, 33.812]}, "properties": {"count": 54}}, {"type": "Feature", "geometry": {"type": "Point", "coordinates": [-118.184, 33.82]}, "properties": {"count": 150}}, {"type": "Feature", "geometry": {"type": "Point", "coordinates": [-118.196, 33.824]}, "properties": {"count": 69}}, {"type": "Feature", "geometry": {"type": "Point", "coordinates": [-118.132, 33.836]}, "properties": {"count": 38}}, {"type": "Feature", "geometry": {"type": "Point", "coordinates": [-118.14, 33.844]}, "properties": {"count": 56}}, {"type": "Feature", "geometry": {"type": "Point", "coordinates": [-118.14, 33.832]}, "properties": {"count": 79}}, {"type": "Feature", "geometry": {"type": "Point", "coordinates": [-118.192, 33.82]}, "properties": {"count": 62}}, {"type": "Feature", "geometry": {"type": "Point", "coordinates": [-118.2, 33.832]}, "properties": {"count": 32}}, {"type": "Feature", "geometry": {"type": "Point", "coordinates": [-118.104, 33.824]}, "properties": {"count": 63}}, {"type": "Feature", "geometry": {"type": "Point", "coordinates": [-118.168, 33.816]}, "properties": {"count": 15}}, {"type": "Feature", "geometry": {"type": "Point", "coordinates": [-118.176, 33.836]}, "properties": {"count": 80}}, {"type": "Feature", "geometry": {"type": "Point", "coordinates": [-118.132, 33.816]}, "properties": {"count": 70}}, {"type": "Feature", "geometry": {"type": "Point", "coordinates": [-118.196, 33.828]}, "properties": {"count": 39}}, {"type": "Feature", "geometry": {"type": "Point", "coordinates": [-118.132, 33.82]}, "properties": {"count": 38}}, {"type": "Feature", "geometry": {"type": "Point", "coordinates": [-118.136, 33.84]}, "properties": {"count": 105}}, {"type": "Feature", "geometry": {"type": "Point", "coordinates": [-118.112, 33.82]}, "properties": {"count": 75}}, {"type": "Feature", "geometry": {"type": "Point", "coordinates": [-118.132, 33.812]}, "properties": {"count": 53}}, {"type": "Feature", "geometry": {"type": "Point", "coordinates": [-118.124, 33.832]}, "properties": {"count": 11}}, {"type": "Feature", "geometry": {"type": "Point", "coordinates": [-118.116, 33.82]}, "properties": {"count": 92}}, {"type": "Feature", "geometry": {"type": "Point", "coordinates": [-118.128, 33.844]}, "properties": {"count": 121}}, {"type": "Feature", "geometry": {"type": "Point", "coordinates": [-118.124, 33.844]}, "properties": {"count": 39}}, {"type": "Feature", "geometry": {"type": "Point", "coordinates": [-118.136, 33.832]}, "properties": {"count": 44}}, {"type": "Feature", "geometry": {"type": "Point", "coordinates": [-118.128, 33.824]}, "properties": {"count": 120}}, {"type": "Feature", "geometry": {"type": "Point", "coordinates": [-118.128, 33.828]}, "properties": {"count": 85}}, {"type": "Feature", "geometry": {"type": "Point", "coordinates": [-118.168, 33.832]}, "properties": {"count": 97}}, {"type": "Feature", "geometry": {"type": "Point", "coordinates": [-118.112, 33.812]}, "properties": {"count": 96}}, {"type": "Feature", "geometry": {"type": "Point", "coordinates": [-118.168, 33.82]}, "properties": {"count": 57}}, {"type": "Feature", "geometry": {"type": "Point", "coordinates": [-118.176, 33.84]}, "properties": {"count": 204}}, {"type": "Feature", "geometry": {"type": "Point", "coordinates": [-118.192, 33.832]}, "properties": {"count": 83}}, {"type": "Feature", "geometry": {"type": "Point", "coordinates": [-118.184, 33.824]}, "properties": {"count": 182}}, {"type": "Feature", "geometry": {"type": "Point", "coordinates": [-118.116, 33.828]}, "properties": {"count": 20}}, {"type": "Feature", "geometry": {"type": "Point", "coordinates": [-118.188, 33.82]}, "properties": {"count": 142}}, {"type": "Feature", "geometry": {"type": "Point", "coordinates": [-118.184, 33.832]}, "properties": {"count": 138}}, {"type": "Feature", "geometry": {"type": "Point", "coordinates": [-118.12, 33.828]}, "properties": {"count": 102}}, {"type": "Feature", "geometry": {"type": "Point", "coordinates": [-118.136, 33.836]}, "properties": {"count": 113}}, {"type": "Feature", "geometry": {"type": "Point", "coordinates": [-118.188, 33.816]}, "properties": {"count": 76}}, {"type": "Feature", "geometry": {"type": "Point", "coordinates": [-118.172, 33.824]}, "properties": {"count": 121}}, {"type": "Feature", "geometry": {"type": "Point", "coordinates": [-118.18, 33.84]}, "properties": {"count": 58}}, {"type": "Feature", "geometry": {"type": "Point", "coordinates": [-118.176, 33.82]}, "properties": {"count": 120}}, {"type": "Feature", "geometry": {"type": "Point", "coordinates": [-118.188, 33.832]}, "properties": {"count": 116}}, {"type": "Feature", "geometry": {"type": "Point", "coordinates": [-118.1, 33.824]}, "properties": {"count": 66}}, {"type": "Feature", "geometry": {"type": "Point", "coordinates": [-118.184, 33.84]}, "properties": {"count": 137}}, {"type": "Feature", "geometry": {"type": "Point", "coordinates": [-118.18, 33.832]}, "properties": {"count": 38}}, {"type": "Feature", "geometry": {"type": "Point", "coordinates": [-118.176, 33.832]}, "properties": {"count": 159}}, {"type": "Feature", "geometry": {"type": "Point", "coordinates": [-118.188, 33.828]}, "properties": {"count": 46}}, {"type": "Feature", "geometry": {"type": "Point", "coordinates": [-118.196, 33.832]}, "properties": {"count": 35}}, {"type": "Feature", "geometry": {"type": "Point", "coordinates": [-118.188, 33.824]}, "properties": {"count": 74}}, {"type": "Feature", "geometry": {"type": "Point", "coordinates": [-118.128, 33.816]}, "properties": {"count": 98}}, {"type": "Feature", "geometry": {"type": "Point", "coordinates": [-118.172, 33.84]}, "properties": {"count": 66}}, {"type": "Feature", "geometry": {"type": "Point", "coordinates": [-118.108, 33.812]}, "properties": {"count": 28}}, {"type": "Feature", "geometry": {"type": "Point", "coordinates": [-118.14, 33.836]}, "properties": {"count": 48}}, {"type": "Feature", "geometry": {"type": "Point", "coordinates": [-118.112, 33.824]}, "properties": {"count": 76}}, {"type": "Feature", "geometry": {"type": "Point", "coordinates": [-118.172, 33.832]}, "properties": {"count": 103}}, {"type": "Feature", "geometry": {"type": "Point", "coordinates": [-118.124, 33.836]}, "properties": {"count": 31}}, {"type": "Feature", "geometry": {"type": "Point", "coordinates": [-118.172, 33.836]}, "properties": {"count": 51}}, {"type": "Feature", "geometry": {"type": "Point", "coordinates": [-118.132, 33.828]}, "properties": {"count": 73}}, {"type": "Feature", "geometry": {"type": "Point", "coordinates": [-118.128, 33.82]}, "properties": {"count": 69}}, {"type": "Feature", "geometry": {"type": "Point", "coordinates": [-118.184, 33.828]}, "properties": {"count": 66}}, {"type": "Feature", "geometry": {"type": "Point", "coordinates": [-118.092, 33.828]}, "properties": {"count": 19}}, {"type": "Feature", "geometry": {"type": "Point", "coordinates": [-118.168, 33.836]}, "properties": {"count": 32}}, {"type": "Feature", "geometry": {"type": "Point", "coordinates": [-118.176, 33.828]}, "properties": {"count": 87}}, {"type": "Feature", "geometry": {"type": "Point", "coordinates": [-118.108, 33.82]}, "properties": {"count": 82}}, {"type": "Feature", "geometry": {"type": "Point", "coordinates": [-118.12, 33.824]}, "properties": {"count": 68}}, {"type": "Feature", "geometry": {"type": "Point", "coordinates": [-118.092, 33.824]}, "properties": {"count": 40}}, {"type": "Feature", "geometry": {"type": "Point", "coordinates": [-118.184, 33.836]}, "properties": {"count": 93}}, {"type": "Feature", "geometry": {"type": "Point", "coordinates": [-118.12, 33.816]}, "properties": {"count": 177}}, {"type": "Feature", "geometry": {"type": "Point", "coordinates": [-118.172, 33.82]}, "properties": {"count": 107}}, {"type": "Feature", "geometry": {"type": "Point", "coordinates": [-118.144, 33.84]}, "properties": {"count": 32}}, {"type": "Feature", "geometry": {"type": "Point", "coordinates": [-118.096, 33.824]}, "properties": {"count": 120}}, {"type": "Feature", "geometry": {"type": "Point", "coordinates": [-118.132, 33.824]}, "properties": {"count": 41}}, {"type": "Feature", "geometry": {"type": "Point", "coordinates": [-118.116, 33.816]}, "properties": {"count": 127}}, {"type": "Feature", "geometry": {"type": "Point", "coordinates": [-118.188, 33.836]}, "properties": {"count": 129}}, {"type": "Feature", "geometry": {"type": "Point", "coordinates": [-118.104, 33.816]}, "properties": {"count": 98}}, {"type": "Feature", "geometry": {"type": "Point", "coordinates": [-118.176, 33.824]}, "properties": {"count": 162}}, {"type": "Feature", "geometry": {"type": "Point", "coordinates": [-118.168, 33.84]}, "properties": {"count": 20}}, {"type": "Feature", "geometry": {"type": "Point", "coordinates": [-118.124, 33.828]}, "properties": {"count": 80}}, {"type": "Feature", "geometry": {"type": "Point", "coordinates": [-118.168, 33.844]}, "properties": {"count": 39}}, {"type": "Feature", "geometry": {"type": "Point", "coordinates": [-118.124, 33.82]}, "properties": {"count": 32}}, {"type": "Feature", "geometry": {"type": "Point", "coordinates": [-118.196, 33.84]}, "properties": {"count": 29}}, {"type": "Feature", "geometry": {"type": "Point", "coordinates": [-118.168, 33.828]}, "properties": {"count": 67}}, {"type": "Feature", "geometry": {"type": "Point", "coordinates": [-118.108, 33.816]}, "properties": {"count": 38}}, {"type": "Feature", "geometry": {"type": "Point", "coordinates": [-118.18, 33.824]}, "properties": {"count": 89}}, {"type": "Feature", "geometry": {"type": "Point", "coordinates": [-118.128, 33.84]}, "properties": {"count": 56}}, {"type": "Feature", "geometry": {"type": "Point", "coordinates": [-118.192, 33.836]}, "properties": {"count": 35}}, {"type": "Feature", "geometry": {"type": "Point", "coordinates": [-118.132, 33.832]}, "properties": {"count": 99}}, {"type": "Feature", "geometry": {"type": "Point", "coordinates": [-118.14, 33.84]}, "properties": {"count": 59}}, {"type": "Feature", "geometry": {"type": "Point", "coordinates": [-118.172, 33.812]}, "properties": {"count": 3}}, {"type": "Feature", "geometry": {"type": "Point", "coordinates": [-118.112, 33.816]}, "properties": {"count": 83}}, {"type": "Feature", "geometry": {"type": "Point", "coordinates": [-118.12, 33.812]}, "properties": {"count": 159}}, {"type": "Feature", "geometry": {"type": "Point", "coordinates": [-118.18, 33.82]}, "properties": {"count": 52}}, {"type": "Feature", "geometry": {"type": "Point", "coordinates": [-118.132, 33.844]}, "properties": {"count": 8}}, {"type": "Feature", "geometry": {"type": "Point", "coordinates": [-118.172, 33.844]}, "properties": {"count": 63}}, {"type": "Feature", "geometry": {"type": "Point", "coordinates": [-118.132, 33.84]}, "properties": {"count": 21}}, {"type": "Feature", "geometry": {"type": "Point", "coordinates": [-118.192, 33.84]}, "properties": {"count": 41}}, {"type": "Feature", "geometry": {"type": "Point", "coordinates": [-118.128, 33.832]}, "properties": {"count": 99}}, {"type": "Feature", "geometry": {"type": "Point", "coordinates": [-118.144, 33.832]}, "properties": {"count": 40}}, {"type": "Feature", "geometry": {"type": "Point", "coordinates": [-118.124, 33.84]}, "properties": {"count": 56}}, {"type": "Feature", "geometry": {"type": "Point", "coordinates": [-118.172, 33.828]}, "properties": {"count": 57}}, {"type": "Feature", "geometry": {"type": "Point", "coordinates": [-118.144, 33.836]}, "properties": {"count": 25}}, {"type": "Feature", "geometry": {"type": "Point", "coordinates": [-118.108, 33.828]}, "properties": {"count": 15}}, {"type": "Feature", "geometry": {"type": "Point", "coordinates": [-118.1, 33.828]}, "properties": {"count": 25}}, {"type": "Feature", "geometry": {"type": "Point", "coordinates": [-118.184, 33.816]}, "properties": {"count": 46}}, {"type": "Feature", "geometry": {"type": "Point", "coordinates": [-118.164, 33.844]}, "properties": {"count": 35}}, {"type": "Feature", "geometry": {"type": "Point", "coordinates": [-118.128, 33.836]}, "properties": {"count": 31}}, {"type": "Feature", "geometry": {"type": "Point", "coordinates": [-118.192, 33.844]}, "properties": {"count": 239}}, {"type": "Feature", "geometry": {"type": "Point", "coordinates": [-118.2, 33.828]}, "properties": {"count": 8}}, {"type": "Feature", "geometry": {"type": "Point", "coordinates": [-118.136, 33.816]}, "properties": {"count": 20}}, {"type": "Feature", "geometry": {"type": "Point", "coordinates": [-118.18, 33.828]}, "properties": {"count": 9}}, {"type": "Feature", "geometry": {"type": "Point", "coordinates": [-118.12, 33.82]}, "properties": {"count": 29}}, {"type": "Feature", "geometry": {"type": "Point", "coordinates": [-118.144, 33.844]}, "properties": {"count": 30}}, {"type": "Feature", "geometry": {"type": "Point", "coordinates": [-118.136, 33.828]}, "properties": {"count": 10}}, {"type": "Feature", "geometry": {"type": "Point", "coordinates": [-118.14, 33.82]}, "properties": {"count": 5}}, {"type": "Feature", "geometry": {"type": "Point", "coordinates": [-118.104, 33.828]}, "properties": {"count": 51}}, {"type": "Feature", "geometry": {"type": "Point", "coordinates": [-118.108, 33.824]}, "properties": {"count": 52}}, {"type": "Feature", "geometry": {"type": "Point", "coordinates": [-118.116, 33.812]}, "properties": {"count": 30}}, {"type": "Feature", "geometry": {"type": "Point", "coordinates": [-118.18, 33.836]}, "properties": {"count": 34}}, {"type": "Feature", "geometry": {"type": "Point", "coordinates": [-118.12, 33.832]}, "properties": {"count": 5}}, {"type": "Feature", "geometry": {"type": "Point", "coordinates": [-118.124, 33.812]}, "properties": {"count": 40}}, {"type": "Feature", "geometry": {"type": "Point", "coordinates": [-118.136, 33.82]}, "properties": {"count": 7}}, {"type": "Feature", "geometry": {"type": "Point", "coordinates": [-118.136, 33.824]}, "properties": {"count": 26}}, {"type": "Feature", "geometry": {"type": "Point", "coordinates": [-118.208, 33.832]}, "properties": {"count": 3}}, {"type": "Feature", "geometry": {"type": "Point", "coordinates": [-118.116, 33.832]}, "properties": {"count": 7}}, {"type": "Feature", "geometry": {"type": "Point", "coordinates": [-118.172, 33.816]}, "properties": {"count": 2}}, {"type": "Feature", "geometry": {"type": "Point", "coordinates": [-118.168, 33.812]}, "properties": {"count": 1}}, {"type": "Feature", "geometry": {"type": "Point", "coordinates": [-118.144, 33.828]}, "properties": {"count": 8}}, {"type": "Feature", "geometry": {"type": "Point", "coordinates": [-118.152, 33.792]}, "properties": {"count": 10}}, {"type": "Feature", "geometry": {"type": "Point", "coordinates": [-118.144, 33.824]}, "properties": {"count": 8}}, {"type": "Feature", "geometry": {"type": "Point", "coordinates": [-118.164, 33.832]}, "properties": {"count": 9}}, {"type": "Feature", "geometry": {"type": "Point", "coordinates": [-118.144, 33.82]}, "properties": {"count": 2}}, {"type": "Feature", "geometry": {"type": "Point", "coordinates": [-118.224, 33.824]}, "properties": {"count": 64}}, {"type": "Feature", "geometry": {"type": "Point", "coordinates": [-118.1, 33.832]}, "properties": {"count": 4}}, {"type": "Feature", "geometry": {"type": "Point", "coordinates": [-118.212, 33.824]}, "properties": {"count": 84}}, {"type": "Feature", "geometry": {"type": "Point", "coordinates": [-118.152, 33.828]}, "properties": {"count": 1}}, {"type": "Feature", "geometry": {"type": "Point", "coordinates": [-118.164, 33.82]}, "properties": {"count": 1}}, {"type": "Feature", "geometry": {"type": "Point", "coordinates": [-118.14, 33.824]}, "properties": {"count": 1}}, {"type": "Feature", "geometry": {"type": "Point", "coordinates": [-118.148, 33.824]}, "properties": {"count": 1}}, {"type": "Feature", "geometry": {"type": "Point", "coordinates": [-118.104, 33.832]}, "properties": {"count": 1}}, {"type": "Feature", "geometry": {"type": "Point", "coordinates": [-118.2, 33.82]}, "properties": {"count": 224}}, {"type": "Feature", "geometry": {"type": "Point", "coordinates": [-118.188, 33.812]}, "properties": {"count": 74}}, {"type": "Feature", "geometry": {"type": "Point", "coordinates": [-118.192, 33.796]}, "properties": {"count": 317}}, {"type": "Feature", "geometry": {"type": "Point", "coordinates": [-118.184, 33.8]}, "properties": {"count": 392}}, {"type": "Feature", "geometry": {"type": "Point", "coordinates": [-118.192, 33.804]}, "properties": {"count": 192}}, {"type": "Feature", "geometry": {"type": "Point", "coordinates": [-118.18, 33.784]}, "properties": {"count": 303}}, {"type": "Feature", "geometry": {"type": "Point", "coordinates": [-118.168, 33.788]}, "properties": {"count": 298}}, {"type": "Feature", "geometry": {"type": "Point", "coordinates": [-118.188, 33.796]}, "properties": {"count": 202}}, {"type": "Feature", "geometry": {"type": "Point", "coordinates": [-118.188, 33.8]}, "properties": {"count": 265}}, {"type": "Feature", "geometry": {"type": "Point", "coordinates": [-118.18, 33.788]}, "properties": {"count": 98}}, {"type": "Feature", "geometry": {"type": "Point", "coordinates": [-118.176, 33.788]}, "properties": {"count": 341}}, {"type": "Feature", "geometry": {"type": "Point", "coordinates": [-118.192, 33.8]}, "properties": {"count": 438}}, {"type": "Feature", "geometry": {"type": "Point", "coordinates": [-118.168, 33.784]}, "properties": {"count": 446}}, {"type": "Feature", "geometry": {"type": "Point", "coordinates": [-118.176, 33.796]}, "properties": {"count": 197}}, {"type": "Feature", "geometry": {"type": "Point", "coordinates": [-118.192, 33.816]}, "properties": {"count": 162}}, {"type": "Feature", "geometry": {"type": "Point", "coordinates": [-118.18, 33.796]}, "properties": {"count": 134}}, {"type": "Feature", "geometry": {"type": "Point", "coordinates": [-118.172, 33.788]}, "properties": {"count": 102}}, {"type": "Feature", "geometry": {"type": "Point", "coordinates": [-118.184, 33.796]}, "properties": {"count": 172}}, {"type": "Feature", "geometry": {"type": "Point", "coordinates": [-118.184, 33.804]}, "properties": {"count": 162}}, {"type": "Feature", "geometry": {"type": "Point", "coordinates": [-118.192, 33.812]}, "properties": {"count": 122}}, {"type": "Feature", "geometry": {"type": "Point", "coordinates": [-118.208, 33.788]}, "properties": {"count": 28}}, {"type": "Feature", "geometry": {"type": "Point", "coordinates": [-118.188, 33.804]}, "properties": {"count": 112}}, {"type": "Feature", "geometry": {"type": "Point", "coordinates": [-118.168, 33.792]}, "properties": {"count": 127}}, {"type": "Feature", "geometry": {"type": "Point", "coordinates": [-118.216, 33.784]}, "properties": {"count": 100}}, {"type": "Feature", "geometry": {"type": "Point", "coordinates": [-118.196, 33.816]}, "properties": {"count": 246}}, {"type": "Feature", "geometry": {"type": "Point", "coordinates": [-118.196, 33.82]}, "properties": {"count": 120}}, {"type": "Feature", "geometry": {"type": "Point", "coordinates": [-118.18, 33.8]}, "properties": {"count": 60}}, {"type": "Feature", "geometry": {"type": "Point", "coordinates": [-118.196, 33.8]}, "properties": {"count": 439}}, {"type": "Feature", "geometry": {"type": "Point", "coordinates": [-118.196, 33.804]}, "properties": {"count": 191}}, {"type": "Feature", "geometry": {"type": "Point", "coordinates": [-118.196, 33.796]}, "properties": {"count": 250}}, {"type": "Feature", "geometry": {"type": "Point", "coordinates": [-118.184, 33.808]}, "properties": {"count": 13}}, {"type": "Feature", "geometry": {"type": "Point", "coordinates": [-118.22, 33.784]}, "properties": {"count": 43}}, {"type": "Feature", "geometry": {"type": "Point", "coordinates": [-118.188, 33.808]}, "properties": {"count": 22}}, {"type": "Feature", "geometry": {"type": "Point", "coordinates": [-118.2, 33.804]}, "properties": {"count": 189}}, {"type": "Feature", "geometry": {"type": "Point", "coordinates": [-118.22, 33.788]}, "properties": {"count": 59}}, {"type": "Feature", "geometry": {"type": "Point", "coordinates": [-118.208, 33.78]}, "properties": {"count": 14}}, {"type": "Feature", "geometry": {"type": "Point", "coordinates": [-118.22, 33.792]}, "properties": {"count": 27}}, {"type": "Feature", "geometry": {"type": "Point", "coordinates": [-118.208, 33.784]}, "properties": {"count": 37}}, {"type": "Feature", "geometry": {"type": "Point", "coordinates": [-118.204, 33.792]}, "properties": {"count": 99}}, {"type": "Feature", "geometry": {"type": "Point", "coordinates": [-118.212, 33.788]}, "properties": {"count": 30}}, {"type": "Feature", "geometry": {"type": "Point", "coordinates": [-118.184, 33.812]}, "properties": {"count": 3}}, {"type": "Feature", "geometry": {"type": "Point", "coordinates": [-118.2, 33.796]}, "properties": {"count": 116}}, {"type": "Feature", "geometry": {"type": "Point", "coordinates": [-118.204, 33.796]}, "properties": {"count": 29}}, {"type": "Feature", "geometry": {"type": "Point", "coordinates": [-118.204, 33.8]}, "properties": {"count": 51}}, {"type": "Feature", "geometry": {"type": "Point", "coordinates": [-118.196, 33.808]}, "properties": {"count": 335}}, {"type": "Feature", "geometry": {"type": "Point", "coordinates": [-118.2, 33.824]}, "properties": {"count": 203}}, {"type": "Feature", "geometry": {"type": "Point", "coordinates": [-118.2, 33.816]}, "properties": {"count": 335}}, {"type": "Feature", "geometry": {"type": "Point", "coordinates": [-118.208, 33.796]}, "properties": {"count": 257}}, {"type": "Feature", "geometry": {"type": "Point", "coordinates": [-118.216, 33.804]}, "properties": {"count": 174}}, {"type": "Feature", "geometry": {"type": "Point", "coordinates": [-118.216, 33.808]}, "properties": {"count": 244}}, {"type": "Feature", "geometry": {"type": "Point", "coordinates": [-118.22, 33.824]}, "properties": {"count": 134}}, {"type": "Feature", "geometry": {"type": "Point", "coordinates": [-118.22, 33.812]}, "properties": {"count": 48}}, {"type": "Feature", "geometry": {"type": "Point", "coordinates": [-118.212, 33.8]}, "properties": {"count": 232}}, {"type": "Feature", "geometry": {"type": "Point", "coordinates": [-118.208, 33.792]}, "properties": {"count": 280}}, {"type": "Feature", "geometry": {"type": "Point", "coordinates": [-118.204, 33.816]}, "properties": {"count": 204}}, {"type": "Feature", "geometry": {"type": "Point", "coordinates": [-118.212, 33.816]}, "properties": {"count": 136}}, {"type": "Feature", "geometry": {"type": "Point", "coordinates": [-118.208, 33.82]}, "properties": {"count": 98}}, {"type": "Feature", "geometry": {"type": "Point", "coordinates": [-118.216, 33.796]}, "properties": {"count": 77}}, {"type": "Feature", "geometry": {"type": "Point", "coordinates": [-118.212, 33.812]}, "properties": {"count": 115}}, {"type": "Feature", "geometry": {"type": "Point", "coordinates": [-118.208, 33.812]}, "properties": {"count": 92}}, {"type": "Feature", "geometry": {"type": "Point", "coordinates": [-118.216, 33.8]}, "properties": {"count": 195}}, {"type": "Feature", "geometry": {"type": "Point", "coordinates": [-118.208, 33.808]}, "properties": {"count": 176}}, {"type": "Feature", "geometry": {"type": "Point", "coordinates": [-118.204, 33.804]}, "properties": {"count": 20}}, {"type": "Feature", "geometry": {"type": "Point", "coordinates": [-118.204, 33.812]}, "properties": {"count": 92}}, {"type": "Feature", "geometry": {"type": "Point", "coordinates": [-118.216, 33.812]}, "properties": {"count": 121}}, {"type": "Feature", "geometry": {"type": "Point", "coordinates": [-118.192, 33.808]}, "properties": {"count": 66}}, {"type": "Feature", "geometry": {"type": "Point", "coordinates": [-118.216, 33.816]}, "properties": {"count": 137}}, {"type": "Feature", "geometry": {"type": "Point", "coordinates": [-118.212, 33.82]}, "properties": {"count": 130}}, {"type": "Feature", "geometry": {"type": "Point", "coordinates": [-118.208, 33.8]}, "properties": {"count": 309}}, {"type": "Feature", "geometry": {"type": "Point", "coordinates": [-118.2, 33.812]}, "properties": {"count": 107}}, {"type": "Feature", "geometry": {"type": "Point", "coordinates": [-118.2, 33.808]}, "properties": {"count": 305}}, {"type": "Feature", "geometry": {"type": "Point", "coordinates": [-118.196, 33.812]}, "properties": {"count": 196}}, {"type": "Feature", "geometry": {"type": "Point", "coordinates": [-118.216, 33.824]}, "properties": {"count": 189}}, {"type": "Feature", "geometry": {"type": "Point", "coordinates": [-118.216, 33.82]}, "properties": {"count": 90}}, {"type": "Feature", "geometry": {"type": "Point", "coordinates": [-118.208, 33.816]}, "properties": {"count": 143}}, {"type": "Feature", "geometry": {"type": "Point", "coordinates": [-118.22, 33.808]}, "properties": {"count": 44}}, {"type": "Feature", "geometry": {"type": "Point", "coordinates": [-118.208, 33.824]}, "properties": {"count": 71}}, {"type": "Feature", "geometry": {"type": "Point", "coordinates": [-118.212, 33.808]}, "properties": {"count": 159}}, {"type": "Feature", "geometry": {"type": "Point", "coordinates": [-118.22, 33.796]}, "properties": {"count": 6}}, {"type": "Feature", "geometry": {"type": "Point", "coordinates": [-118.212, 33.796]}, "properties": {"count": 87}}, {"type": "Feature", "geometry": {"type": "Point", "coordinates": [-118.22, 33.8]}, "properties": {"count": 59}}, {"type": "Feature", "geometry": {"type": "Point", "coordinates": [-118.212, 33.804]}, "properties": {"count": 154}}, {"type": "Feature", "geometry": {"type": "Point", "coordinates": [-118.208, 33.804]}, "properties": {"count": 125}}, {"type": "Feature", "geometry": {"type": "Point", "coordinates": [-118.22, 33.804]}, "properties": {"count": 86}}, {"type": "Feature", "geometry": {"type": "Point", "coordinates": [-118.216, 33.788]}, "properties": {"count": 114}}, {"type": "Feature", "geometry": {"type": "Point", "coordinates": [-118.204, 33.808]}, "properties": {"count": 99}}, {"type": "Feature", "geometry": {"type": "Point", "coordinates": [-118.156, 33.792]}, "properties": {"count": 12}}, {"type": "Feature", "geometry": {"type": "Point", "coordinates": [-118.22, 33.816]}, "properties": {"count": 2}}, {"type": "Feature", "geometry": {"type": "Point", "coordinates": [-118.224, 33.792]}, "properties": {"count": 6}}, {"type": "Feature", "geometry": {"type": "Point", "coordinates": [-118.204, 33.82]}, "properties": {"count": 10}}, {"type": "Feature", "geometry": {"type": "Point", "coordinates": [-118.204, 33.824]}, "properties": {"count": 6}}, {"type": "Feature", "geometry": {"type": "Point", "coordinates": [-118.216, 33.78]}, "properties": {"count": 5}}, {"type": "Feature", "geometry": {"type": "Point", "coordinates": [-118.224, 33.788]}, "properties": {"count": 1}}, {"type": "Feature", "geometry": {"type": "Point", "coordinates": [-118.208, 33.776]}, "properties": {"count": 1}}, {"type": "Feature", "geometry": {"type": "Point", "coordinates": [-118.212, 33.78]}, "properties": {"count": 3}}, {"type": "Feature", "geometry": {"type": "Point", "coordinates": [-118.2, 33.864]}, "properties": {"count": 69}}, {"type": "Feature", "geometry": {"type": "Point", "coordinates": [-118.164, 33.86]}, "properties": {"count": 33}}, {"type": "Feature", "geometry": {"type": "Point", "coordinates": [-118.196, 33.852]}, "properties": {"count": 306}}, {"type": "Feature", "geometry": {"type": "Point", "coordinates": [-118.184, 33.848]}, "properties": {"count": 160}}, {"type": "Feature", "geometry": {"type": "Point", "coordinates": [-118.18, 33.856]}, "properties": {"count": 154}}, {"type": "Feature", "geometry": {"type": "Point", "coordinates": [-118.192, 33.848]}, "properties": {"count": 252}}, {"type": "Feature", "geometry": {"type": "Point", "coordinates": [-118.188, 33.856]}, "properties": {"count": 243}}, {"type": "Feature", "geometry": {"type": "Point", "coordinates": [-118.172, 33.852]}, "properties": {"count": 70}}, {"type": "Feature", "geometry": {"type": "Point", "coordinates": [-118.188, 33.852]}, "properties": {"count": 131}}, {"type": "Feature", "geometry": {"type": "Point", "coordinates": [-118.196, 33.872]}, "properties": {"count": 178}}, {"type": "Feature", "geometry": {"type": "Point", "coordinates": [-118.196, 33.868]}, "properties": {"count": 47}}, {"type": "Feature", "geometry": {"type": "Point", "coordinates": [-118.196, 33.864]}, "properties": {"count": 1}}, {"type": "Feature", "geometry": {"type": "Point", "coordinates": [-118.2, 33.868]}, "properties": {"count": 139}}, {"type": "Feature", "geometry": {"type": "Point", "coordinates": [-118.18, 33.86]}, "properties": {"count": 140}}, {"type": "Feature", "geometry": {"type": "Point", "coordinates": [-118.184, 33.844]}, "properties": {"count": 59}}, {"type": "Feature", "geometry": {"type": "Point", "coordinates": [-118.184, 33.852]}, "properties": {"count": 194}}, {"type": "Feature", "geometry": {"type": "Point", "coordinates": [-118.176, 33.856]}, "properties": {"count": 323}}, {"type": "Feature", "geometry": {"type": "Point", "coordinates": [-118.188, 33.86]}, "properties": {"count": 206}}, {"type": "Feature", "geometry": {"type": "Point", "coordinates": [-118.184, 33.856]}, "properties": {"count": 464}}, {"type": "Feature", "geometry": {"type": "Point", "coordinates": [-118.176, 33.848]}, "properties": {"count": 139}}, {"type": "Feature", "geometry": {"type": "Point", "coordinates": [-118.192, 33.856]}, "properties": {"count": 553}}, {"type": "Feature", "geometry": {"type": "Point", "coordinates": [-118.192, 33.86]}, "properties": {"count": 253}}, {"type": "Feature", "geometry": {"type": "Point", "coordinates": [-118.172, 33.856]}, "properties": {"count": 131}}, {"type": "Feature", "geometry": {"type": "Point", "coordinates": [-118.192, 33.852]}, "properties": {"count": 256}}, {"type": "Feature", "geometry": {"type": "Point", "coordinates": [-118.184, 33.86]}, "properties": {"count": 236}}, {"type": "Feature", "geometry": {"type": "Point", "coordinates": [-118.188, 33.84]}, "properties": {"count": 112}}, {"type": "Feature", "geometry": {"type": "Point", "coordinates": [-118.2, 33.852]}, "properties": {"count": 146}}, {"type": "Feature", "geometry": {"type": "Point", "coordinates": [-118.168, 33.848]}, "properties": {"count": 131}}, {"type": "Feature", "geometry": {"type": "Point", "coordinates": [-118.188, 33.844]}, "properties": {"count": 64}}, {"type": "Feature", "geometry": {"type": "Point", "coordinates": [-118.172, 33.848]}, "properties": {"count": 81}}, {"type": "Feature", "geometry": {"type": "Point", "coordinates": [-118.16, 33.86]}, "properties": {"count": 176}}, {"type": "Feature", "geometry": {"type": "Point", "coordinates": [-118.196, 33.844]}, "properties": {"count": 238}}, {"type": "Feature", "geometry": {"type": "Point", "coordinates": [-118.164, 33.856]}, "properties": {"count": 74}}, {"type": "Feature", "geometry": {"type": "Point", "coordinates": [-118.188, 33.848]}, "properties": {"count": 178}}, {"type": "Feature", "geometry": {"type": "Point", "coordinates": [-118.2, 33.844]}, "properties": {"count": 59}}, {"type": "Feature", "geometry": {"type": "Point", "coordinates": [-118.16, 33.856]}, "properties": {"count": 135}}, {"type": "Feature", "geometry": {"type": "Point", "coordinates": [-118.204, 33.872]}, "properties": {"count": 67}}, {"type": "Feature", "geometry": {"type": "Point", "coordinates": [-118.176, 33.86]}, "properties": {"count": 277}}, {"type": "Feature", "geometry": {"type": "Point", "coordinates": [-118.196, 33.848]}, "properties": {"count": 232}}, {"type": "Feature", "geometry": {"type": "Point", "coordinates": [-118.2, 33.856]}, "properties": {"count": 51}}, {"type": "Feature", "geometry": {"type": "Point", "coordinates": [-118.204, 33.864]}, "properties": {"count": 12}}, {"type": "Feature", "geometry": {"type": "Point", "coordinates": [-118.168, 33.852]}, "properties": {"count": 77}}, {"type": "Feature", "geometry": {"type": "Point", "coordinates": [-118.176, 33.844]}, "properties": {"count": 196}}, {"type": "Feature", "geometry": {"type": "Point", "coordinates": [-118.176, 33.852]}, "properties": {"count": 121}}, {"type": "Feature", "geometry": {"type": "Point", "coordinates": [-118.168, 33.856]}, "properties": {"count": 182}}, {"type": "Feature", "geometry": {"type": "Point", "coordinates": [-118.168, 33.86]}, "properties": {"count": 90}}, {"type": "Feature", "geometry": {"type": "Point", "coordinates": [-118.18, 33.848]}, "properties": {"count": 20}}, {"type": "Feature", "geometry": {"type": "Point", "coordinates": [-118.172, 33.86]}, "properties": {"count": 123}}, {"type": "Feature", "geometry": {"type": "Point", "coordinates": [-118.18, 33.844]}, "properties": {"count": 85}}, {"type": "Feature", "geometry": {"type": "Point", "coordinates": [-118.2, 33.872]}, "properties": {"count": 251}}, {"type": "Feature", "geometry": {"type": "Point", "coordinates": [-118.204, 33.868]}, "properties": {"count": 67}}, {"type": "Feature", "geometry": {"type": "Point", "coordinates": [-118.2, 33.848]}, "properties": {"count": 61}}, {"type": "Feature", "geometry": {"type": "Point", "coordinates": [-118.196, 33.86]}, "properties": {"count": 97}}, {"type": "Feature", "geometry": {"type": "Point", "coordinates": [-118.18, 33.852]}, "properties": {"count": 22}}, {"type": "Feature", "geometry": {"type": "Point", "coordinates": [-118.208, 33.828]}, "properties": {"count": 3}}, {"type": "Feature", "geometry": {"type": "Point", "coordinates": [-118.212, 33.832]}, "properties": {"count": 2}}, {"type": "Feature", "geometry": {"type": "Point", "coordinates": [-118.2, 33.876]}, "properties": {"count": 191}}, {"type": "Feature", "geometry": {"type": "Point", "coordinates": [-118.212, 33.828]}, "properties": {"count": 3}}, {"type": "Feature", "geometry": {"type": "Point", "coordinates": [-118.212, 33.836]}, "properties": {"count": 1}}, {"type": "Feature", "geometry": {"type": "Point", "coordinates": [-118.208, 33.872]}, "properties": {"count": 8}}, {"type": "Feature", "geometry": {"type": "Point", "coordinates": [-118.208, 33.868]}, "properties": {"count": 1}}, {"type": "Feature", "geometry": {"type": "Point", "coordinates": [-118.208, 33.836]}, "properties": {"count": 3}}, {"type": "Feature", "geometry": {"type": "Point", "coordinates": [-118.184, 33.864]}, "properties": {"count": 494}}, {"type": "Feature", "geometry": {"type": "Point", "coordinates": [-118.184, 33.868]}, "properties": {"count": 61}}, {"type": "Feature", "geometry": {"type": "Point", "coordinates": [-118.176, 33.864]}, "properties": {"count": 355}}, {"type": "Feature", "geometry": {"type": "Point", "coordinates": [-118.184, 33.876]}, "properties": {"count": 127}}, {"type": "Feature", "geometry": {"type": "Point", "coordinates": [-118.192, 33.868]}, "properties": {"count": 66}}, {"type": "Feature", "geometry": {"type": "Point", "coordinates": [-118.168, 33.876]}, "properties": {"count": 116}}, {"type": "Feature", "geometry": {"type": "Point", "coordinates": [-118.192, 33.864]}, "properties": {"count": 332}}, {"type": "Feature", "geometry": {"type": "Point", "coordinates": [-118.192, 33.88]}, "properties": {"count": 65}}, {"type": "Feature", "geometry": {"type": "Point", "coordinates": [-118.18, 33.88]}, "properties": {"count": 102}}, {"type": "Feature", "geometry": {"type": "Point", "coordinates": [-118.176, 33.876]}, "properties": {"count": 143}}, {"type": "Feature", "geometry": {"type": "Point", "coordinates": [-118.172, 33.868]}, "properties": {"count": 81}}, {"type": "Feature", "geometry": {"type": "Point", "coordinates": [-118.156, 33.876]}, "properties": {"count": 88}}, {"type": "Feature", "geometry": {"type": "Point", "coordinates": [-118.156, 33.868]}, "properties": {"count": 46}}, {"type": "Feature", "geometry": {"type": "Point", "coordinates": [-118.18, 33.872]}, "properties": {"count": 101}}, {"type": "Feature", "geometry": {"type": "Point", "coordinates": [-118.172, 33.872]}, "properties": {"count": 163}}, {"type": "Feature", "geometry": {"type": "Point", "coordinates": [-118.184, 33.88]}, "properties": {"count": 193}}, {"type": "Feature", "geometry": {"type": "Point", "coordinates": [-118.168, 33.864]}, "properties": {"count": 142}}, {"type": "Feature", "geometry": {"type": "Point", "coordinates": [-118.16, 33.872]}, "properties": {"count": 246}}, {"type": "Feature", "geometry": {"type": "Point", "coordinates": [-118.18, 33.864]}, "properties": {"count": 107}}, {"type": "Feature", "geometry": {"type": "Point", "coordinates": [-118.18, 33.868]}, "properties": {"count": 88}}, {"type": "Feature", "geometry": {"type": "Point", "coordinates": [-118.172, 33.864]}, "properties": {"count": 190}}, {"type": "Feature", "geometry": {"type": "Point", "coordinates": [-118.208, 33.88]}, "properties": {"count": 91}}, {"type": "Feature", "geometry": {"type": "Point", "coordinates": [-118.152, 33.876]}, "properties": {"count": 93}}, {"type": "Feature", "geometry": {"type": "Point", "coordinates": [-118.196, 33.876]}, "properties": {"count": 148}}, {"type": "Feature", "geometry": {"type": "Point", "coordinates": [-118.18, 33.884]}, "properties": {"count": 114}}, {"type": "Feature", "geometry": {"type": "Point", "coordinates": [-118.196, 33.88]}, "properties": {"count": 137}}, {"type": "Feature", "geometry": {"type": "Point", "coordinates": [-118.16, 33.876]}, "properties": {"count": 152}}, {"type": "Feature", "geometry": {"type": "Point", "coordinates": [-118.148, 33.864]}, "properties": {"count": 64}}, {"type": "Feature", "geometry": {"type": "Point", "coordinates": [-118.2, 33.88]}, "properties": {"count": 166}}, {"type": "Feature", "geometry": {"type": "Point", "coordinates": [-118.184, 33.884]}, "properties": {"count": 177}}, {"type": "Feature", "geometry": {"type": "Point", "coordinates": [-118.188, 33.868]}, "properties": {"count": 111}}, {"type": "Feature", "geometry": {"type": "Point", "coordinates": [-118.156, 33.88]}, "properties": {"count": 88}}, {"type": "Feature", "geometry": {"type": "Point", "coordinates": [-118.172, 33.88]}, "properties": {"count": 44}}, {"type": "Feature", "geometry": {"type": "Point", "coordinates": [-118.168, 33.872]}, "properties": {"count": 337}}, {"type": "Feature", "geometry": {"type": "Point", "coordinates": [-118.188, 33.864]}, "properties": {"count": 220}}, {"type": "Feature", "geometry": {"type": "Point", "coordinates": [-118.18, 33.876]}, "properties": {"count": 100}}, {"type": "Feature", "geometry": {"type": "Point", "coordinates": [-118.16, 33.868]}, "properties": {"count": 43}}, {"type": "Feature", "geometry": {"type": "Point", "coordinates": [-118.156, 33.872]}, "properties": {"count": 106}}, {"type": "Feature", "geometry": {"type": "Point", "coordinates": [-118.16, 33.88]}, "properties": {"count": 156}}, {"type": "Feature", "geometry": {"type": "Point", "coordinates": [-118.164, 33.868]}, "properties": {"count": 63}}, {"type": "Feature", "geometry": {"type": "Point", "coordinates": [-118.176, 33.872]}, "properties": {"count": 205}}, {"type": "Feature", "geometry": {"type": "Point", "coordinates": [-118.208, 33.876]}, "properties": {"count": 73}}, {"type": "Feature", "geometry": {"type": "Point", "coordinates": [-118.152, 33.872]}, "properties": {"count": 54}}, {"type": "Feature", "geometry": {"type": "Point", "coordinates": [-118.152, 33.86]}, "properties": {"count": 64}}, {"type": "Feature", "geometry": {"type": "Point", "coordinates": [-118.176, 33.88]}, "properties": {"count": 104}}, {"type": "Feature", "geometry": {"type": "Point", "coordinates": [-118.168, 33.868]}, "properties": {"count": 189}}, {"type": "Feature", "geometry": {"type": "Point", "coordinates": [-118.188, 33.872]}, "properties": {"count": 33}}, {"type": "Feature", "geometry": {"type": "Point", "coordinates": [-118.176, 33.868]}, "properties": {"count": 182}}, {"type": "Feature", "geometry": {"type": "Point", "coordinates": [-118.152, 33.868]}, "properties": {"count": 114}}, {"type": "Feature", "geometry": {"type": "Point", "coordinates": [-118.172, 33.876]}, "properties": {"count": 74}}, {"type": "Feature", "geometry": {"type": "Point", "coordinates": [-118.168, 33.88]}, "properties": {"count": 55}}, {"type": "Feature", "geometry": {"type": "Point", "coordinates": [-118.184, 33.872]}, "properties": {"count": 76}}, {"type": "Feature", "geometry": {"type": "Point", "coordinates": [-118.152, 33.864]}, "properties": {"count": 122}}, {"type": "Feature", "geometry": {"type": "Point", "coordinates": [-118.156, 33.864]}, "properties": {"count": 40}}, {"type": "Feature", "geometry": {"type": "Point", "coordinates": [-118.164, 33.864]}, "properties": {"count": 2}}, {"type": "Feature", "geometry": {"type": "Point", "coordinates": [-118.148, 33.868]}, "properties": {"count": 28}}, {"type": "Feature", "geometry": {"type": "Point", "coordinates": [-118.188, 33.88]}, "properties": {"count": 5}}, {"type": "Feature", "geometry": {"type": "Point", "coordinates": [-118.188, 33.876]}, "properties": {"count": 5}}, {"type": "Feature", "geometry": {"type": "Point", "coordinates": [-118.164, 33.88]}, "properties": {"count": 10}}, {"type": "Feature", "geometry": {"type": "Point", "coordinates": [-118.164, 33.876]}, "properties": {"count": 14}}, {"type": "Feature", "geometry": {"type": "Point", "coordinates": [-118.164, 33.872]}, "properties": {"count": 14}}, {"type": "Feature", "geometry": {"type": "Point", "coordinates": [-118.16, 33.864]}, "properties": {"count": 19}}, {"type": "Feature", "geometry": {"type": "Point", "coordinates": [-118.192, 33.876]}, "properties": {"count": 16}}, {"type": "Feature", "geometry": {"type": "Point", "coordinates": [-118.176, 33.884]}, "properties": {"count": 62}}, {"type": "Feature", "geometry": {"type": "Point", "coordinates": [-118.152, 33.88]}, "properties": {"count": 23}}, {"type": "Feature", "geometry": {"type": "Point", "coordinates": [-118.156, 33.86]}, "properties": {"count": 8}}]}